{
  "type": "FeatureCollection",
  "features": [
    {
      "type": "Feature",
      "geometry": {
        "type": "Polygon",
        "coordinates": [
          [
            [
              49.2823555,
              53.5928119
            ],
            [
              49.282327,
              53.5927296
            ],
            [
              49.2825458,
              53.592703
            ],
            [
              49.2825742,
              53.5927852
            ],
            [
              49.2823555,
              53.5928119
            ]
          ]
        ]
      },
      "properties": {
        "id": "way/1523126103",
        "source_type": "my",
        "height": "",
        "num_floors": "",
        "class": "building",
        "name": ""
      }
    },
    {
      "type": "Feature",
      "geometry": {
        "type": "Polygon",
        "coordinates": [
          [
            [
              49.2824736,
              53.593261
            ],
            [
              49.2824485,
              53.5931832
            ],
            [
              49.2825756,
              53.5931687
            ],
            [
              49.2826007,
              53.5932465
            ],
            [
              49.2824736,
              53.593261
            ]
          ]
        ]
      },
      "properties": {
        "id": "way/1523126105",
        "source_type": "my",
        "height": "",
        "num_floors": "",
        "class": "building",
        "name": ""
      }
    },
    {
      "type": "Feature",
      "geometry": {
        "type": "Polygon",
        "coordinates": [
          [
            [
              49.2825364,
              53.5934832
            ],
            [
              49.2825161,
              53.5933999
            ],
            [
              49.2826481,
              53.5933886
            ],
            [
              49.2826683,
              53.5934719
            ],
            [
              49.2825364,
              53.5934832
            ]
          ]
        ]
      },
      "properties": {
        "id": "way/1523126106",
        "source_type": "my",
        "height": "",
        "num_floors": "",
        "class": "building",
        "name": ""
      }
    },
    {
      "type": "Feature",
      "geometry": {
        "type": "Polygon",
        "coordinates": [
          [
            [
              49.2830204,
              53.5932002
            ],
            [
              49.2830086,
              53.5931353
            ],
            [
              49.2831326,
              53.5931274
            ],
            [
              49.2831443,
              53.5931923
            ],
            [
              49.2830204,
              53.5932002
            ]
          ]
        ]
      },
      "properties": {
        "id": "way/1523126107",
        "source_type": "my",
        "height": "",
        "num_floors": "",
        "class": "building",
        "name": ""
      }
    },
    {
      "type": "Feature",
      "geometry": {
        "type": "Polygon",
        "coordinates": [
          [
            [
              49.2830079,
              53.59299
            ],
            [
              49.2829905,
              53.5929326
            ],
            [
              49.2830766,
              53.5929234
            ],
            [
              49.283094,
              53.5929809
            ],
            [
              49.2830079,
              53.59299
            ]
          ]
        ]
      },
      "properties": {
        "id": "way/1523126108",
        "source_type": "my",
        "height": "",
        "num_floors": "",
        "class": "building",
        "name": ""
      }
    },
    {
      "type": "Feature",
      "geometry": {
        "type": "Polygon",
        "coordinates": [
          [
            [
              49.2829422,
              53.5929273
            ],
            [
              49.2829156,
              53.5928751
            ],
            [
              49.2829923,
              53.5928613
            ],
            [
              49.2830189,
              53.5929136
            ],
            [
              49.2829422,
              53.5929273
            ]
          ]
        ]
      },
      "properties": {
        "id": "way/1523126109",
        "source_type": "my",
        "height": "",
        "num_floors": "",
        "class": "building",
        "name": ""
      }
    },
    {
      "type": "Feature",
      "geometry": {
        "type": "Polygon",
        "coordinates": [
          [
            [
              49.2826152,
              53.5938568
            ],
            [
              49.2826027,
              53.5937676
            ],
            [
              49.2827196,
              53.5937618
            ],
            [
              49.2827322,
              53.593851
            ],
            [
              49.2826152,
              53.5938568
            ]
          ]
        ]
      },
      "properties": {
        "id": "way/1523126110",
        "source_type": "my",
        "height": "",
        "num_floors": "",
        "class": "building",
        "name": ""
      }
    },
    {
      "type": "Feature",
      "geometry": {
        "type": "Polygon",
        "coordinates": [
          [
            [
              49.2826931,
              53.5940249
            ],
            [
              49.2826638,
              53.5939427
            ],
            [
              49.2828653,
              53.5939174
            ],
            [
              49.2828947,
              53.5939996
            ],
            [
              49.2826931,
              53.5940249
            ]
          ]
        ]
      },
      "properties": {
        "id": "way/1523126111",
        "source_type": "my",
        "height": "",
        "num_floors": "",
        "class": "building",
        "name": ""
      }
    },
    {
      "type": "Feature",
      "geometry": {
        "type": "Polygon",
        "coordinates": [
          [
            [
              49.2832866,
              53.5939814
            ],
            [
              49.2832558,
              53.5939014
            ],
            [
              49.2833428,
              53.5938896
            ],
            [
              49.2833735,
              53.5939696
            ],
            [
              49.2832866,
              53.5939814
            ]
          ]
        ]
      },
      "properties": {
        "id": "way/1523126112",
        "source_type": "my",
        "height": "",
        "num_floors": "",
        "class": "building",
        "name": ""
      }
    },
    {
      "type": "Feature",
      "geometry": {
        "type": "Polygon",
        "coordinates": [
          [
            [
              49.2827314,
              53.5942159
            ],
            [
              49.2827085,
              53.5941487
            ],
            [
              49.2828658,
              53.5941299
            ],
            [
              49.2828886,
              53.5941971
            ],
            [
              49.2827314,
              53.5942159
            ]
          ]
        ]
      },
      "properties": {
        "id": "way/1523126113",
        "source_type": "my",
        "height": "",
        "num_floors": "",
        "class": "building",
        "name": ""
      }
    },
    {
      "type": "Feature",
      "geometry": {
        "type": "Polygon",
        "coordinates": [
          [
            [
              49.2830885,
              53.5934397
            ],
            [
              49.2830721,
              53.5933539
            ],
            [
              49.2831875,
              53.5933461
            ],
            [
              49.2832039,
              53.5934319
            ],
            [
              49.2830885,
              53.5934397
            ]
          ]
        ]
      },
      "properties": {
        "id": "way/1523132412",
        "source_type": "my",
        "height": "",
        "num_floors": "",
        "class": "building",
        "name": ""
      }
    }
  ]
}