{
    "type": "FeatureCollection",
    "features": [
        {
            "type": "Feature",
            "id": "way/1523126103",
            "properties": {
                "timestamp": "2026-05-27T01:53:25Z",
                "version": "2",
                "changeset": "183234333",
                "user": "Маргарита Лаврук",
                "uid": "24157303",
                "addr:city": "село Тимофеевка",
                "addr:housenumber": "731",
                "addr:street": "8-я улица",
                "building": "house",
                "building:levels": "2",
                "id": "way/1523126103"
            },
            "geometry": {
                "type": "Polygon",
                "coordinates": [
                    [
                        [
                            49.2823555,
                            53.5928119
                        ],
                        [
                            49.282327,
                            53.5927296
                        ],
                        [
                            49.2825458,
                            53.592703
                        ],
                        [
                            49.2825742,
                            53.5927852
                        ],
                        [
                            49.2823555,
                            53.5928119
                        ]
                    ]
                ]
            }
        },
        {
            "type": "Feature",
            "id": "way/1523126105",
            "properties": {
                "timestamp": "2026-05-27T01:53:25Z",
                "version": "2",
                "changeset": "183234333",
                "user": "Маргарита Лаврук",
                "uid": "24157303",
                "addr:city": "село Тимофеевка",
                "addr:housenumber": "730",
                "addr:street": "8-я улица",
                "building": "house",
                "building:levels": "2",
                "id": "way/1523126105"
            },
            "geometry": {
                "type": "Polygon",
                "coordinates": [
                    [
                        [
                            49.2824736,
                            53.593261
                        ],
                        [
                            49.2824485,
                            53.5931832
                        ],
                        [
                            49.2825756,
                            53.5931687
                        ],
                        [
                            49.2826007,
                            53.5932465
                        ],
                        [
                            49.2824736,
                            53.593261
                        ]
                    ]
                ]
            }
        },
        {
            "type": "Feature",
            "id": "way/1523126106",
            "properties": {
                "timestamp": "2026-05-27T01:53:25Z",
                "version": "2",
                "changeset": "183234333",
                "user": "Маргарита Лаврук",
                "uid": "24157303",
                "addr:city": "село Тимофеевка",
                "addr:housenumber": "729",
                "addr:street": "8-я улица",
                "building": "house",
                "building:levels": "2",
                "id": "way/1523126106"
            },
            "geometry": {
                "type": "Polygon",
                "coordinates": [
                    [
                        [
                            49.2825364,
                            53.5934832
                        ],
                        [
                            49.2825161,
                            53.5933999
                        ],
                        [
                            49.2826481,
                            53.5933886
                        ],
                        [
                            49.2826683,
                            53.5934719
                        ],
                        [
                            49.2825364,
                            53.5934832
                        ]
                    ]
                ]
            }
        },
        {
            "type": "Feature",
            "id": "way/1523126107",
            "properties": {
                "timestamp": "2026-05-27T01:01:01Z",
                "version": "1",
                "changeset": "183233613",
                "user": "Маргарита Лаврук",
                "uid": "24157303",
                "addr:city": "село Тимофеевка",
                "addr:housenumber": "737",
                "addr:street": "9-я улица",
                "building": "house",
                "building:levels": "2",
                "id": "way/1523126107"
            },
            "geometry": {
                "type": "Polygon",
                "coordinates": [
                    [
                        [
                            49.2830204,
                            53.5932002
                        ],
                        [
                            49.2830086,
                            53.5931353
                        ],
                        [
                            49.2831326,
                            53.5931274
                        ],
                        [
                            49.2831443,
                            53.5931923
                        ],
                        [
                            49.2830204,
                            53.5932002
                        ]
                    ]
                ]
            }
        },
        {
            "type": "Feature",
            "id": "way/1523126108",
            "properties": {
                "timestamp": "2026-05-27T01:01:01Z",
                "version": "1",
                "changeset": "183233613",
                "user": "Маргарита Лаврук",
                "uid": "24157303",
                "addr:city": "село Тимофеевка",
                "addr:housenumber": "736",
                "addr:street": "9-я улица",
                "building": "house",
                "building:levels": "2",
                "id": "way/1523126108"
            },
            "geometry": {
                "type": "Polygon",
                "coordinates": [
                    [
                        [
                            49.2830079,
                            53.59299
                        ],
                        [
                            49.2829905,
                            53.5929326
                        ],
                        [
                            49.2830766,
                            53.5929234
                        ],
                        [
                            49.283094,
                            53.5929809
                        ],
                        [
                            49.2830079,
                            53.59299
                        ]
                    ]
                ]
            }
        },
        {
            "type": "Feature",
            "id": "way/1523126109",
            "properties": {
                "timestamp": "2026-05-27T01:01:01Z",
                "version": "1",
                "changeset": "183233613",
                "user": "Маргарита Лаврук",
                "uid": "24157303",
                "addr:city": "село Тимофеевка",
                "addr:housenumber": "732",
                "addr:street": "9-я улица",
                "building": "house",
                "building:levels": "2",
                "id": "way/1523126109"
            },
            "geometry": {
                "type": "Polygon",
                "coordinates": [
                    [
                        [
                            49.2829422,
                            53.5929273
                        ],
                        [
                            49.2829156,
                            53.5928751
                        ],
                        [
                            49.2829923,
                            53.5928613
                        ],
                        [
                            49.2830189,
                            53.5929136
                        ],
                        [
                            49.2829422,
                            53.5929273
                        ]
                    ]
                ]
            }
        },
        {
            "type": "Feature",
            "id": "way/1523126110",
            "properties": {
                "timestamp": "2026-05-27T01:53:25Z",
                "version": "2",
                "changeset": "183234333",
                "user": "Маргарита Лаврук",
                "uid": "24157303",
                "addr:city": "село Тимофеевка",
                "addr:housenumber": "727",
                "addr:street": "8-я улица",
                "building": "house",
                "building:levels": "2",
                "id": "way/1523126110"
            },
            "geometry": {
                "type": "Polygon",
                "coordinates": [
                    [
                        [
                            49.2826152,
                            53.5938568
                        ],
                        [
                            49.2826027,
                            53.5937676
                        ],
                        [
                            49.2827196,
                            53.5937618
                        ],
                        [
                            49.2827322,
                            53.593851
                        ],
                        [
                            49.2826152,
                            53.5938568
                        ]
                    ]
                ]
            }
        },
        {
            "type": "Feature",
            "id": "way/1523126111",
            "properties": {
                "timestamp": "2026-05-27T01:53:25Z",
                "version": "2",
                "changeset": "183234333",
                "user": "Маргарита Лаврук",
                "uid": "24157303",
                "addr:city": "село Тимофеевка",
                "addr:housenumber": "726",
                "addr:street": "8-я улица",
                "building": "house",
                "building:levels": "2",
                "id": "way/1523126111"
            },
            "geometry": {
                "type": "Polygon",
                "coordinates": [
                    [
                        [
                            49.2826931,
                            53.5940249
                        ],
                        [
                            49.2826638,
                            53.5939427
                        ],
                        [
                            49.2828653,
                            53.5939174
                        ],
                        [
                            49.2828947,
                            53.5939996
                        ],
                        [
                            49.2826931,
                            53.5940249
                        ]
                    ]
                ]
            }
        },
        {
            "type": "Feature",
            "id": "way/1523126112",
            "properties": {
                "timestamp": "2026-05-27T01:01:01Z",
                "version": "1",
                "changeset": "183233613",
                "user": "Маргарита Лаврук",
                "uid": "24157303",
                "addr:city": "село Тимофеевка",
                "addr:housenumber": "741",
                "addr:street": "9-я улица",
                "building": "house",
                "building:levels": "2",
                "id": "way/1523126112"
            },
            "geometry": {
                "type": "Polygon",
                "coordinates": [
                    [
                        [
                            49.2832866,
                            53.5939814
                        ],
                        [
                            49.2832558,
                            53.5939014
                        ],
                        [
                            49.2833428,
                            53.5938896
                        ],
                        [
                            49.2833735,
                            53.5939696
                        ],
                        [
                            49.2832866,
                            53.5939814
                        ]
                    ]
                ]
            }
        },
        {
            "type": "Feature",
            "id": "way/1523126113",
            "properties": {
                "timestamp": "2026-05-27T01:53:25Z",
                "version": "2",
                "changeset": "183234333",
                "user": "Маргарита Лаврук",
                "uid": "24157303",
                "addr:city": "село Тимофеевка",
                "addr:housenumber": "725",
                "addr:street": "8-я улица",
                "building": "house",
                "building:levels": "2",
                "id": "way/1523126113"
            },
            "geometry": {
                "type": "Polygon",
                "coordinates": [
                    [
                        [
                            49.2827314,
                            53.5942159
                        ],
                        [
                            49.2827085,
                            53.5941487
                        ],
                        [
                            49.2828658,
                            53.5941299
                        ],
                        [
                            49.2828886,
                            53.5941971
                        ],
                        [
                            49.2827314,
                            53.5942159
                        ]
                    ]
                ]
            }
        },
        {
            "type": "Feature",
            "id": "way/1523132412",
            "properties": {
                "timestamp": "2026-05-27T01:53:25Z",
                "version": "1",
                "changeset": "183234333",
                "user": "Маргарита Лаврук",
                "uid": "24157303",
                "addr:city": "село Тимофеевка",
                "addr:housenumber": "738",
                "addr:street": "9-я улица",
                "building": "house",
                "building:levels": "2",
                "id": "way/1523132412"
            },
            "geometry": {
                "type": "Polygon",
                "coordinates": [
                    [
                        [
                            49.2830885,
                            53.5934397
                        ],
                        [
                            49.2830721,
                            53.5933539
                        ],
                        [
                            49.2831875,
                            53.5933461
                        ],
                        [
                            49.2832039,
                            53.5934319
                        ],
                        [
                            49.2830885,
                            53.5934397
                        ]
                    ]
                ]
            }
        }
    ]
}