{
  "type": "FeatureCollection",
  "features": [
    {
      "type": "Feature",
      "id": "way/-2",
      "properties": {
        "version": "0",
        "building": "yes",
        "building:levels": "1",
        "addr:street": "Солнечная улица",
        "addr:city": "сельское поселение Воскресенка",
        "id": "way/-2",
        "user": "alexandragorbuntsova",
        "changeset": "183022012",
        "addr:place": "СТ Рассвет",
        "addr:housenumber": "97"
      },
      "geometry": {
        "type": "Polygon",
        "coordinates": [
          [
            [
              49.974971916090496,
              53.12791500490821
            ],
            [
              49.975142477035064,
              53.128030917684626
            ],
            [
              49.975012464421866,
              53.12809461712048
            ],
            [
              49.97484451116229,
              53.12797535764048
            ],
            [
              49.974971916090496,
              53.12791500490821
            ]
          ]
        ]
      }
    },
    {
      "type": "Feature",
      "id": "way/-6",
      "properties": {
        "version": "0",
        "building": "yes",
        "building:levels": "1",
        "addr:city": "сельское поселение Воскресенка",
        "addr:street": "Солнечная улица",
        "id": "way/-6",
        "user": "alexandragorbuntsova",
        "changeset": "183022012",
        "addr:place": "СТ Рассвет",
        "addr:housenumber": "80"
      },
      "geometry": {
        "type": "Polygon",
        "coordinates": [
          [
            [
              49.97388796837236,
              53.12846944215525
            ],
            [
              49.97379274995233,
              53.128402652561036
            ],
            [
              49.973937589239135,
              53.128318159552165
            ],
            [
              49.974054265331276,
              53.12838897275182
            ],
            [
              49.97388796837236,
              53.12846944215525
            ]
          ]
        ]
      }
    },
    {
      "type": "Feature",
      "id": "way/-8",
      "properties": {
        "version": "0",
        "building": "yes",
        "building:levels": "1",
        "addr:street": "Солнечная улица",
        "addr:city": "сельское поселение Воскресенка",
        "id": "way/-8",
        "user": "alexandragorbuntsova",
        "changeset": "183022012",
        "addr:place": "СТ Рассвет",
        "addr:housenumber": "96"
      },
      "geometry": {
        "type": "Polygon",
        "coordinates": [
          [
            [
              49.97383834750558,
              53.12825056502544
            ],
            [
              49.97374715239907,
              53.128169290513256
            ],
            [
              49.973850417446144,
              53.128122617951654
            ],
            [
              49.973949659179695,
              53.12820067375895
            ],
            [
              49.97383834750558,
              53.12825056502544
            ]
          ]
        ]
      }
    },
    {
      "type": "Feature",
      "id": "way/-9",
      "properties": {
        "version": "0",
        "building": "yes",
        "building:levels": "1",
        "addr:city": "сельское поселение Воскресенка",
        "addr:street": "Солнечная улица",
        "id": "way/-9",
        "user": "alexandragorbuntsova",
        "changeset": "183022012",
        "addr:place": "СТ Рассвет",
        "addr:housenumber": "96"
      },
      "geometry": {
        "type": "Polygon",
        "coordinates": [
          [
            [
              49.97408524443281,
              53.1281309294462
            ],
            [
              49.97396338989865,
              53.1280372957155
            ],
            [
              49.974083696237486,
              53.12798091682031
            ],
            [
              49.97420557520197,
              53.12807454219628
            ],
            [
              49.97408524443281,
              53.1281309294462
            ]
          ]
        ]
      }
    },
    {
      "type": "Feature",
      "id": "way/-11",
      "properties": {
        "version": "0",
        "building": "yes",
        "building:levels": "1",
        "addr:street": "Солнечная улица",
        "addr:city": "сельское поселение Воскресенка",
        "id": "way/-11",
        "user": "alexandragorbuntsova",
        "changeset": "183022012",
        "addr:place": "СТ Рассвет",
        "addr:housenumber": "80"
      },
      "geometry": {
        "type": "Polygon",
        "coordinates": [
          [
            [
              49.97362434530957,
              53.12857038125667
            ],
            [
              49.973523720859546,
              53.12849748469713
            ],
            [
              49.973606902348855,
              53.12845613887585
            ],
            [
              49.97370754636558,
              53.1285290268671
            ],
            [
              49.97362434530957,
              53.12857038125667
            ]
          ]
        ]
      }
    },
    {
      "type": "Feature",
      "id": "way/-12",
      "properties": {
        "version": "0",
        "building": "yes",
        "building:levels": "1",
        "addr:city": "сельское поселение Воскресенка",
        "id": "way/-12",
        "addr:street": "Солнечная улица",
        "user": "alexandragorbuntsova",
        "changeset": "183022012",
        "addr:place": "СТ Рассвет",
        "addr:housenumber": "110"
      },
      "geometry": {
        "type": "Polygon",
        "coordinates": [
          [
            [
              49.973302228753504,
              53.12782088133087
            ],
            [
              49.973395236184395,
              53.12791150087048
            ],
            [
              49.97327403641226,
              53.12795627807995
            ],
            [
              49.97318105180824,
              53.12786565591825
            ],
            [
              49.973302228753504,
              53.12782088133087
            ]
          ]
        ]
      }
    },
    {
      "type": "Feature",
      "id": "way/-13",
      "properties": {
        "version": "0",
        "building": "yes",
        "building:levels": "1",
        "addr:street": "Солнечная улица",
        "addr:city": "сельское поселение Воскресенка",
        "id": "way/-13",
        "user": "alexandragorbuntsova",
        "changeset": "183022012",
        "addr:place": "СТ Рассвет",
        "addr:housenumber": "96"
      },
      "geometry": {
        "type": "Polygon",
        "coordinates": [
          [
            [
              49.974274969168256,
              53.12806044743098
            ],
            [
              49.97414678945028,
              53.12795909463005
            ],
            [
              49.97422793899792,
              53.12792215114152
            ],
            [
              49.974356089631335,
              53.128023517374515
            ],
            [
              49.974274969168256,
              53.12806044743098
            ]
          ]
        ]
      }
    },
    {
      "type": "Feature",
      "id": "way/-14",
      "properties": {
        "version": "0",
        "building": "yes",
        "building:levels": "1",
        "addr:street": "Солнечная улица",
        "addr:city": "сельское поселение Воскресенка",
        "id": "way/-14",
        "user": "alexandragorbuntsova",
        "changeset": "183022012",
        "addr:place": "СТ Рассвет",
        "addr:housenumber": "62"
      },
      "geometry": {
        "type": "Polygon",
        "coordinates": [
          [
            [
              49.97537808433957,
              53.128583725463756
            ],
            [
              49.975280183710524,
              53.12849520934709
            ],
            [
              49.975398200907186,
              53.12844129489576
            ],
            [
              49.97550548926778,
              53.12853142050777
            ],
            [
              49.97537808433957,
              53.128583725463756
            ]
          ]
        ]
      }
    },
    {
      "type": "Feature",
      "id": "way/-15",
      "properties": {
        "version": "0",
        "building": "yes",
        "building:levels": "1",
        "addr:street": "Солнечная улица",
        "addr:city": "сельское поселение Воскресенка",
        "id": "way/-15",
        "user": "alexandragorbuntsova",
        "changeset": "183022012",
        "addr:place": "СТ Рассвет",
        "addr:housenumber": "66"
      },
      "geometry": {
        "type": "Polygon",
        "coordinates": [
          [
            [
              49.97611943114541,
              53.12827768104468
            ],
            [
              49.975969929752864,
              53.128175000761026
            ],
            [
              49.9760516043218,
              53.128132178907954
            ],
            [
              49.976201136663256,
              53.12823484306957
            ],
            [
              49.97611943114541,
              53.12827768104468
            ]
          ]
        ]
      }
    },
    {
      "type": "Feature",
      "id": "way/-17",
      "properties": {
        "version": "0",
        "building": "yes",
        "building:levels": "1",
        "addr:street": "Солнечная улица",
        "addr:city": "сельское поселение Воскресенка",
        "id": "way/-17",
        "user": "alexandragorbuntsova",
        "changeset": "183022012",
        "addr:place": "СТ Рассвет",
        "addr:housenumber": "79"
      },
      "geometry": {
        "type": "Polygon",
        "coordinates": [
          [
            [
              49.97306464891283,
              53.12894111483267
            ],
            [
              49.97295625487238,
              53.12887419351655
            ],
            [
              49.97308206972385,
              53.12880083020138
            ],
            [
              49.973190458967,
              53.12886776342279
            ],
            [
              49.97306464891283,
              53.12894111483267
            ]
          ]
        ]
      }
    }
  ]
}
