{
    "type": "FeatureCollection",
    "features": [
        {
            "type": "Feature",
            "id": "way/1499838431",
            "properties": {
                "timestamp": "2026-04-16T09:03:51Z",
                "version": "1",
                "changeset": "181402713",
                "user": "ichumakov",
                "uid": "23965241",
                "addr:city": "сельское поселение Подстепки",
                "addr:housenumber": "4",
                "addr:street": "1-я улица",
                "building": "yes",
                "building:levels": "2",
                "id": "way/1499838431"
            },
            "geometry": {
                "type": "Polygon",
                "coordinates": [
                    [
                        [
                            49.2195639,
                            53.5971495
                        ],
                        [
                            49.2195515,
                            53.597104
                        ],
                        [
                            49.2196848,
                            53.5970911
                        ],
                        [
                            49.2196973,
                            53.5971366
                        ],
                        [
                            49.2195639,
                            53.5971495
                        ]
                    ]
                ]
            }
        },
        {
            "type": "Feature",
            "id": "way/1499838432",
            "properties": {
                "timestamp": "2026-04-16T09:03:51Z",
                "version": "1",
                "changeset": "181402713",
                "user": "ichumakov",
                "uid": "23965241",
                "addr:city": "сельское поселение Подстепки",
                "addr:housenumber": "92",
                "addr:street": "2-я улица",
                "building": "yes",
                "building:levels": "2",
                "id": "way/1499838432"
            },
            "geometry": {
                "type": "Polygon",
                "coordinates": [
                    [
                        [
                            49.2193787,
                            53.5969812
                        ],
                        [
                            49.2193594,
                            53.5969126
                        ],
                        [
                            49.2195306,
                            53.5968956
                        ],
                        [
                            49.2195499,
                            53.5969643
                        ],
                        [
                            49.2193787,
                            53.5969812
                        ]
                    ]
                ]
            }
        },
        {
            "type": "Feature",
            "id": "way/1499838433",
            "properties": {
                "timestamp": "2026-04-16T09:03:51Z",
                "version": "1",
                "changeset": "181402713",
                "user": "ichumakov",
                "uid": "23965241",
                "addr:city": "сельское поселение Подстепки",
                "addr:housenumber": "5",
                "addr:street": "1-я улица",
                "building": "yes",
                "building:levels": "2",
                "id": "way/1499838433"
            },
            "geometry": {
                "type": "Polygon",
                "coordinates": [
                    [
                        [
                            49.219772,
                            53.5972799
                        ],
                        [
                            49.2197678,
                            53.5972272
                        ],
                        [
                            49.2198579,
                            53.5972246
                        ],
                        [
                            49.2198622,
                            53.5972774
                        ],
                        [
                            49.219772,
                            53.5972799
                        ]
                    ]
                ]
            }
        },
        {
            "type": "Feature",
            "id": "way/1499838434",
            "properties": {
                "timestamp": "2026-04-16T09:03:51Z",
                "version": "1",
                "changeset": "181402713",
                "user": "ichumakov",
                "uid": "23965241",
                "addr:city": "сельское поселение Подстепки",
                "addr:housenumber": "1102",
                "addr:street": "1-я улица",
                "building": "yes",
                "building:levels": "2",
                "id": "way/1499838434"
            },
            "geometry": {
                "type": "Polygon",
                "coordinates": [
                    [
                        [
                            49.2200518,
                            53.5972324
                        ],
                        [
                            49.2200423,
                            53.5971925
                        ],
                        [
                            49.2201456,
                            53.5971838
                        ],
                        [
                            49.2201551,
                            53.5972238
                        ],
                        [
                            49.2200518,
                            53.5972324
                        ]
                    ]
                ]
            }
        },
        {
            "type": "Feature",
            "id": "way/1499838435",
            "properties": {
                "timestamp": "2026-04-16T09:03:51Z",
                "version": "1",
                "changeset": "181402713",
                "user": "ichumakov",
                "uid": "23965241",
                "addr:city": "сельское поселение Подстепки",
                "addr:housenumber": "2",
                "addr:street": "1-я улица",
                "building": "yes",
                "id": "way/1499838435"
            },
            "geometry": {
                "type": "Polygon",
                "coordinates": [
                    [
                        [
                            49.2192231,
                            53.5973566
                        ],
                        [
                            49.2191918,
                            53.5972137
                        ],
                        [
                            49.2188075,
                            53.5972434
                        ],
                        [
                            49.2187935,
                            53.5971797
                        ],
                        [
                            49.2193813,
                            53.5971342
                        ],
                        [
                            49.2194266,
                            53.5973408
                        ],
                        [
                            49.2192231,
                            53.5973566
                        ]
                    ]
                ]
            }
        },
        {
            "type": "Feature",
            "id": "way/1499838437",
            "properties": {
                "timestamp": "2026-04-16T09:03:51Z",
                "version": "1",
                "changeset": "181402713",
                "user": "ichumakov",
                "uid": "23965241",
                "addr:city": "сельское поселение Подстепки",
                "addr:housenumber": "1121",
                "addr:street": "2-я улица",
                "building": "yes",
                "building:levels": "2",
                "id": "way/1499838437"
            },
            "geometry": {
                "type": "Polygon",
                "coordinates": [
                    [
                        [
                            49.2185759,
                            53.5970312
                        ],
                        [
                            49.218567,
                            53.5969647
                        ],
                        [
                            49.2186925,
                            53.5969602
                        ],
                        [
                            49.2186955,
                            53.5970277
                        ],
                        [
                            49.2185759,
                            53.5970312
                        ]
                    ]
                ]
            }
        },
        {
            "type": "Feature",
            "id": "way/1499838438",
            "properties": {
                "timestamp": "2026-04-16T09:03:51Z",
                "version": "1",
                "changeset": "181402713",
                "user": "ichumakov",
                "uid": "23965241",
                "addr:city": "сельское поселение Подстепки",
                "addr:housenumber": "1147",
                "addr:street": "2-я улица",
                "building": "yes",
                "building:levels": "2",
                "id": "way/1499838438"
            },
            "geometry": {
                "type": "Polygon",
                "coordinates": [
                    [
                        [
                            49.218835,
                            53.5968602
                        ],
                        [
                            49.2188254,
                            53.5967943
                        ],
                        [
                            49.2189466,
                            53.5967881
                        ],
                        [
                            49.2189562,
                            53.596854
                        ],
                        [
                            49.218835,
                            53.5968602
                        ]
                    ]
                ]
            }
        },
        {
            "type": "Feature",
            "id": "way/1499838439",
            "properties": {
                "timestamp": "2026-04-16T09:03:51Z",
                "version": "1",
                "changeset": "181402713",
                "user": "ichumakov",
                "uid": "23965241",
                "addr:city": "сельское поселение Подстепки",
                "addr:housenumber": "91",
                "addr:street": "2-я улица",
                "building": "yes",
                "building:levels": "2",
                "id": "way/1499838439"
            },
            "geometry": {
                "type": "Polygon",
                "coordinates": [
                    [
                        [
                            49.2190235,
                            53.5969884
                        ],
                        [
                            49.2190085,
                            53.5969239
                        ],
                        [
                            49.2191529,
                            53.596912
                        ],
                        [
                            49.219168,
                            53.5969765
                        ],
                        [
                            49.2190235,
                            53.5969884
                        ]
                    ]
                ]
            }
        },
        {
            "type": "Feature",
            "id": "way/1499838440",
            "properties": {
                "timestamp": "2026-04-16T09:03:51Z",
                "version": "1",
                "changeset": "181402713",
                "user": "ichumakov",
                "uid": "23965241",
                "addr:city": "сельское поселение Подстепки",
                "addr:housenumber": "91",
                "addr:street": "2-я улица",
                "building": "yes",
                "id": "way/1499838440"
            },
            "geometry": {
                "type": "Polygon",
                "coordinates": [
                    [
                        [
                            49.2196467,
                            53.5969391
                        ],
                        [
                            49.2196331,
                            53.5968836
                        ],
                        [
                            49.2198055,
                            53.5968687
                        ],
                        [
                            49.2198192,
                            53.5969242
                        ],
                        [
                            49.2196467,
                            53.5969391
                        ]
                    ]
                ]
            }
        },
        {
            "type": "Feature",
            "id": "way/300336484",
            "properties": {
                "timestamp": "2024-04-01T14:11:50Z",
                "version": "2",
                "changeset": "149437332",
                "user": "skysamum",
                "uid": "1517841",
                "highway": "unclassified",
                "id": "way/300336484"
            },
            "geometry": {
                "type": "LineString",
                "coordinates": [
                    [
                        49.2322051,
                        53.5962034
                    ],
                    [
                        49.2255407,
                        53.5968481
                    ],
                    [
                        49.2185126,
                        53.597528
                    ],
                    [
                        49.2182615,
                        53.5975113
                    ]
                ]
            }
        },
        {
            "type": "Feature",
            "id": "way/300336485",
            "properties": {
                "timestamp": "2014-08-26T18:52:17Z",
                "version": "1",
                "changeset": "25035968",
                "user": "massterr",
                "uid": "2059021",
                "highway": "service",
                "id": "way/300336485"
            },
            "geometry": {
                "type": "LineString",
                "coordinates": [
                    [
                        49.2179762,
                        53.5969953
                    ],
                    [
                        49.2200269,
                        53.5968192
                    ],
                    [
                        49.2214742,
                        53.5966802
                    ],
                    [
                        49.2253731,
                        53.5963047
                    ],
                    [
                        49.229019,
                        53.5959574
                    ],
                    [
                        49.2307984,
                        53.5957603
                    ],
                    [
                        49.2312571,
                        53.5957462
                    ],
                    [
                        49.2321181,
                        53.5956635
                    ],
                    [
                        49.2379249,
                        53.595106
                    ],
                    [
                        49.244959,
                        53.5944306
                    ]
                ]
            }
        }
    ]
}