{"type":"FeatureCollection","features":[{"type":"Feature","geometry":{"type":"Polygon","coordinates":[[[106.3900243,52.7950351],[106.3901394,52.7949354],[106.3905817,52.795122],[106.3904666,52.7952217],[106.3900243,52.7950351]]]},"properties":{"id":"3683adc4-ff00-48f4-83d6-63a0dbd033e7","source_type":"osm"}},{"type":"Feature","geometry":{"type":"Polygon","coordinates":[[[106.3964392,52.7943498],[106.3965182,52.794246],[106.3967515,52.7943109],[106.3966725,52.7944147],[106.3964392,52.7943498]]]},"properties":{"id":"306f3628-efe5-4820-9115-155945b12ce0","source_type":"osm"}},{"type":"Feature","geometry":{"type":"Polygon","coordinates":[[[106.3955311,52.7946563],[106.3958718,52.7947504],[106.3958298,52.7948059],[106.3954892,52.7947119],[106.3955311,52.7946563]]]},"properties":{"id":"20d4d09e-1c86-48e7-98fe-697a37355d1f","source_type":"osm"}},{"type":"Feature","geometry":{"type":"Polygon","coordinates":[[[106.3958586,52.7950564],[106.3959442,52.7949564],[106.3964887,52.7951266],[106.3964031,52.7952267],[106.3958586,52.7950564]]]},"properties":{"id":"762a6fc4-94b8-4229-9d10-747f11984175","source_type":"osm"}},{"type":"Feature","geometry":{"type":"Polygon","coordinates":[[[106.4022289,52.7956395],[106.4022983,52.7955581],[106.4026577,52.79567],[106.4025884,52.7957514],[106.4022289,52.7956395]]]},"properties":{"id":"6cfde421-d294-46fe-8c7d-e1d9bb7bab18","source_type":"osm"}},{"type":"Feature","geometry":{"type":"Polygon","coordinates":[[[106.4018719,52.7972236],[106.4016546,52.7974231],[106.4015199,52.7973695],[106.4017371,52.79717],[106.4018719,52.7972236]]]},"properties":{"id":"adebc745-c538-497f-a36e-99ce7e7556e7","source_type":"osm"}},{"type":"Feature","geometry":{"type":"Polygon","coordinates":[[[106.4023612,52.7985922],[106.4022982,52.7986514],[106.4021734,52.7986028],[106.4022364,52.7985436],[106.4023612,52.7985922]]]},"properties":{"id":"bf8dc4c6-eb2e-4c91-b095-557b640dde98","source_type":"osm"}},{"type":"Feature","geometry":{"type":"Polygon","coordinates":[[[106.402411,52.7993676],[106.402529,52.7994178],[106.4024696,52.7994688],[106.4023516,52.7994185],[106.402411,52.7993676]]]},"properties":{"id":"932bf43f-e6be-4485-8d44-2eaaab915d41","source_type":"osm"}},{"type":"Feature","geometry":{"type":"Polygon","coordinates":[[[106.4007398,52.8001798],[106.4004073,52.8004512],[106.4002227,52.8003687],[106.400632,52.8000339],[106.4005033,52.7999764],[106.4004699,52.8000038],[106.400178,52.7998734],[106.400362,52.7997228],[106.4006661,52.7998587],[106.4006312,52.7998873],[106.4007482,52.7999396],[106.4008547,52.7998525],[106.4010387,52.7999347],[106.4007398,52.8001798]]]},"properties":{"id":"d50e189a-ba4e-459c-8862-506b8bfcd184","source_type":"osm"}},{"type":"Feature","geometry":{"type":"Polygon","coordinates":[[[106.4014372,52.7957509],[106.4013514,52.795853],[106.4012563,52.7958238],[106.4013422,52.7957217],[106.4014372,52.7957509]]]},"properties":{"id":"c6fb3beb-2735-45a3-b3e3-ca599075a7c8","source_type":"osm"}},{"type":"Feature","geometry":{"type":"Polygon","coordinates":[[[106.4019201,52.795331],[106.4018477,52.7954137],[106.4016963,52.7953652],[106.4017687,52.7952825],[106.4019201,52.795331]]]},"properties":{"id":"69951ef0-2907-4126-b870-f74f505cc5b7","source_type":"osm"}},{"type":"Feature","geometry":{"type":"Polygon","coordinates":[[[106.4015232,52.7967793],[106.4013327,52.796969],[106.4011464,52.7969006],[106.4013368,52.7967109],[106.4015232,52.7967793]]]},"properties":{"id":"99453d10-3e07-42f1-9838-d327d0b39a1a","source_type":"osm"}},{"type":"Feature","geometry":{"type":"Polygon","coordinates":[[[106.4026675,52.7981463],[106.4025611,52.7981097],[106.4026496,52.7980157],[106.4028357,52.7980797],[106.4027906,52.7981276],[106.4027109,52.7981002],[106.4026675,52.7981463]]]},"properties":{"id":"b9c14286-2395-4acb-91de-658c2655bcc2","source_type":"osm"}},{"type":"Feature","geometry":{"type":"Polygon","coordinates":[[[106.4028135,52.7946438],[106.4024968,52.7950093],[106.4023232,52.7949544],[106.4026399,52.7945888],[106.4028135,52.7946438]]]},"properties":{"id":"d3b550f5-9cfe-4ccb-9bd7-6383c021afd4","source_type":"osm"}},{"type":"Feature","geometry":{"type":"Polygon","coordinates":[[[106.4020416,52.7959021],[106.4018742,52.7958445],[106.4019292,52.7957861],[106.4020965,52.7958437],[106.4020416,52.7959021]]]},"properties":{"id":"81cb92ed-d9f2-4549-a4f9-16b8cd80c1f5","source_type":"osm"}},{"type":"Feature","geometry":{"type":"Polygon","coordinates":[[[106.4003885,52.7957431],[106.4002517,52.7957087],[106.4003912,52.795506],[106.4005279,52.7955404],[106.4003885,52.7957431]]]},"properties":{"id":"bd3feee7-215d-4a4c-9763-98295a970e50","source_type":"osm"}},{"type":"Feature","geometry":{"type":"Polygon","coordinates":[[[106.4002974,52.7984622],[106.4003802,52.7983909],[106.4006119,52.7984892],[106.400243,52.7988071],[106.4000094,52.798708],[106.4001055,52.7986252],[106.4001608,52.7986487],[106.4003509,52.7984849],[106.4002974,52.7984622]]]},"properties":{"id":"f784a2be-bdb7-4fab-9395-466430987138","source_type":"osm"}},{"type":"Feature","geometry":{"type":"Polygon","coordinates":[[[106.3998414,52.7991633],[106.3997153,52.7992817],[106.3995292,52.7992092],[106.3996552,52.7990908],[106.3998414,52.7991633]]]},"properties":{"id":"c6cca65a-b0f0-4394-b836-344525756187","source_type":"osm"}},{"type":"Feature","geometry":{"type":"Polygon","coordinates":[[[106.395645,52.7993882],[106.3957032,52.799346],[106.3958479,52.7994189],[106.3957897,52.7994611],[106.395645,52.7993882]]]},"properties":{"id":"151b00d2-933c-4b7f-b63c-8c1b2299711e","source_type":"my"}},{"type":"Feature","geometry":{"type":"Polygon","coordinates":[[[106.4003763,52.801038],[106.400225,52.800973],[106.4006461,52.8006146],[106.4007999,52.8006807],[106.4006899,52.8007743],[106.4006601,52.8007615],[106.4004653,52.8009273],[106.4004926,52.8009391],[106.4003763,52.801038]]]},"properties":{"id":"206bda9b-54f6-42ec-83a8-b34625b08ee1","source_type":"osm"}},{"type":"Feature","geometry":{"type":"Polygon","coordinates":[[[106.4027208,52.8048672],[106.4025813,52.804812],[106.4026457,52.8047525],[106.4027852,52.8048076],[106.4027208,52.8048672]]]},"properties":{"id":"2f937d52-e151-458f-aa58-f5807ae945ea","source_type":"osm"}},{"type":"Feature","geometry":{"type":"Polygon","coordinates":[[[106.4012897,52.794659],[106.4013488,52.7945444],[106.401727,52.7946158],[106.4016679,52.7947304],[106.4012897,52.794659]]]},"properties":{"id":"8176eb4f-f83a-4c49-bc5f-5fa22f01c889","source_type":"osm"}},{"type":"Feature","geometry":{"type":"Polygon","coordinates":[[[106.4018324,52.7950756],[106.4017377,52.7951816],[106.4016797,52.7951626],[106.4017744,52.7950566],[106.4018324,52.7950756]]]},"properties":{"id":"1c6239c0-1eff-4660-b435-758bdf5fd366","source_type":"osm"}},{"type":"Feature","geometry":{"type":"Polygon","coordinates":[[[106.3967539,52.7950059],[106.3968078,52.7949515],[106.3969255,52.7949942],[106.397009,52.7950245],[106.3969551,52.7950788],[106.3967539,52.7950059]]]},"properties":{"id":"0f578243-7da2-42b1-9d83-709c1921fcf3","source_type":"osm"}},{"type":"Feature","geometry":{"type":"Polygon","coordinates":[[[106.4020589,52.79704],[106.4019282,52.7969869],[106.4020221,52.7969025],[106.4021527,52.7969557],[106.4020589,52.79704]]]},"properties":{"id":"f9a3aa4b-e5d0-486d-ac4a-b2497999e0d6","source_type":"osm"}},{"type":"Feature","geometry":{"type":"Polygon","coordinates":[[[106.3997078,52.7968152],[106.4002786,52.7970501],[106.3999496,52.7973424],[106.3993787,52.7971074],[106.3997078,52.7968152]]]},"properties":{"id":"2edcae7d-56c4-46dd-8425-b84f04eaae81","source_type":"osm"}},{"type":"Feature","geometry":{"type":"Polygon","coordinates":[[[106.4028455,52.7998881],[106.4025096,52.7997475],[106.4026137,52.7996566],[106.4028114,52.7997393],[106.4029081,52.7996548],[106.4027021,52.7995685],[106.4027998,52.7994832],[106.4031441,52.7996273],[106.4028455,52.7998881]]]},"properties":{"id":"945d0cf1-4ade-4598-b50a-7112f500ade2","source_type":"osm"}},{"type":"Feature","geometry":{"type":"Polygon","coordinates":[[[106.40019,52.8042256],[106.4000413,52.8041667],[106.4003578,52.8038748],[106.4005065,52.8039337],[106.40019,52.8042256]]]},"properties":{"id":"75f6b698-8a77-4022-bc24-0d530474627f","source_type":"osm"}},{"type":"Feature","geometry":{"type":"Polygon","coordinates":[[[106.3934792,52.7946798],[106.3932217,52.7945582],[106.39331,52.7944899],[106.393429,52.7945461],[106.3934826,52.7945046],[106.3936211,52.79457],[106.3934792,52.7946798]]]},"properties":{"id":"6d06b9f9-3031-481c-864f-9629e07a65d1","source_type":"osm"}},{"type":"Feature","geometry":{"type":"Polygon","coordinates":[[[106.4018941,52.7955577],[106.4019717,52.7954563],[106.402254,52.7955354],[106.4021763,52.7956369],[106.4018941,52.7955577]]]},"properties":{"id":"ec98b18f-c729-4b8d-8638-e4ea4437e2e1","source_type":"osm"}},{"type":"Feature","geometry":{"type":"Polygon","coordinates":[[[106.4012709,52.7953181],[106.4011191,52.7952739],[106.4011706,52.7952092],[106.4013224,52.7952534],[106.4012709,52.7953181]]]},"properties":{"id":"6d072291-c9bd-47cf-903b-487f379956f0","source_type":"osm"}},{"type":"Feature","geometry":{"type":"Polygon","coordinates":[[[106.4000989,52.7974669],[106.4004744,52.7976193],[106.4003585,52.7977237],[106.4001569,52.7976419],[106.4000712,52.797719],[106.3998973,52.7976484],[106.4000989,52.7974669]]]},"properties":{"id":"af2f61d0-3b64-4d92-8a56-526c4191e333","source_type":"osm"}},{"type":"Feature","geometry":{"type":"Polygon","coordinates":[[[106.3970758,52.7944213],[106.3969902,52.7944033],[106.3970546,52.7942914],[106.3971401,52.7943094],[106.3970758,52.7944213]]]},"properties":{"id":"43b0b195-91cc-4730-ad65-41e8c4da4d59","source_type":"osm"}},{"type":"Feature","geometry":{"type":"Polygon","coordinates":[[[106.401034,52.7960858],[106.4009035,52.796046],[106.401059,52.7958595],[106.4011896,52.7958993],[106.401034,52.7960858]]]},"properties":{"id":"2758b930-7909-45a9-8c72-52ebb5e69cc9","source_type":"osm"}},{"type":"Feature","geometry":{"type":"Polygon","coordinates":[[[106.4009626,52.7987043],[106.40074,52.7988956],[106.4005776,52.7988266],[106.4008002,52.7986352],[106.4009626,52.7987043]]]},"properties":{"id":"9404ea50-2d27-4ea2-95b9-114f3c2f9ea4","source_type":"osm"}},{"type":"Feature","geometry":{"type":"Polygon","coordinates":[[[106.4001447,52.798986],[106.4000478,52.7989473],[106.4001363,52.7988663],[106.4002332,52.7989049],[106.4001447,52.798986]]]},"properties":{"id":"d2dc7ec9-420b-4b4f-9e76-c25ddae081f6","source_type":"osm"}},{"type":"Feature","geometry":{"type":"Polygon","coordinates":[[[106.3977185,52.8003507],[106.397573,52.8002899],[106.3976349,52.8002358],[106.3976616,52.8002469],[106.3976784,52.8002321],[106.3977972,52.8002817],[106.3977185,52.8003507]]]},"properties":{"id":"4019781f-ee04-499a-b709-7a7808985fd9","source_type":"my"}},{"type":"Feature","geometry":{"type":"Polygon","coordinates":[[[106.3957055,52.8000968],[106.3958186,52.8000648],[106.3959254,52.8002029],[106.3957578,52.8002503],[106.3956776,52.8001466],[106.3957321,52.8001312],[106.3957055,52.8000968]]]},"properties":{"id":"82c2b885-fd02-4d36-9199-bd1720c1a560","source_type":"my"}},{"type":"Feature","geometry":{"type":"Polygon","coordinates":[[[106.3956071,52.8003267],[106.3954951,52.8003822],[106.3953785,52.8002963],[106.3954905,52.8002408],[106.3956071,52.8003267]]]},"properties":{"id":"109e9e76-a7f1-4082-a393-2343892cba30","source_type":"my"}},{"type":"Feature","geometry":{"type":"Polygon","coordinates":[[[106.3968097,52.7947291],[106.3967167,52.7946985],[106.3969688,52.7944179],[106.3970619,52.7944485],[106.3968097,52.7947291]]]},"properties":{"id":"b0bfc8c9-d90a-48ff-8539-972ffcb0cad3","source_type":"osm"}},{"type":"Feature","geometry":{"type":"Polygon","coordinates":[[[106.4023397,52.7979957],[106.4024109,52.7979232],[106.4025329,52.797967],[106.4024617,52.7980395],[106.4023397,52.7979957]]]},"properties":{"id":"e5030b5a-dff4-42c0-873b-ba9ed506c35a","source_type":"osm"}},{"type":"Feature","geometry":{"type":"Polygon","coordinates":[[[106.4026372,52.7988083],[106.4027972,52.7986718],[106.4032014,52.7988452],[106.4030413,52.7989816],[106.4029083,52.7989246],[106.4029828,52.7988611],[106.4028375,52.7987988],[106.4027631,52.7988623],[106.4026372,52.7988083]]]},"properties":{"id":"b3fddf2a-c0cd-4620-a33c-8cefe3e57e03","source_type":"osm"}},{"type":"Feature","geometry":{"type":"Polygon","coordinates":[[[106.3972832,52.8000527],[106.3974964,52.8001464],[106.3973799,52.8002433],[106.3971667,52.8001496],[106.3972832,52.8000527]]]},"properties":{"id":"4bb9bf2d-0778-4223-8913-82bfa30de56e","source_type":"my"}},{"type":"Feature","geometry":{"type":"Polygon","coordinates":[[[106.4015142,52.8046498],[106.4011211,52.8050154],[106.4010071,52.8049706],[106.4009635,52.8049535],[106.4013566,52.8045878],[106.4015142,52.8046498]]]},"properties":{"id":"21bd00bc-cfa3-4a97-bf0e-a67d8d8b3e00","source_type":"osm"}},{"type":"Feature","geometry":{"type":"Polygon","coordinates":[[[106.4025612,52.7974328],[106.4023412,52.7976485],[106.4021519,52.797578],[106.4023718,52.7973623],[106.4025612,52.7974328]]]},"properties":{"id":"ee2c67b9-797e-489d-b059-aa37d6aabbce","source_type":"osm"}},{"type":"Feature","geometry":{"type":"Polygon","coordinates":[[[106.4000614,52.7995816],[106.3999353,52.7996838],[106.3998213,52.7996324],[106.3999474,52.7995302],[106.4000614,52.7995816]]]},"properties":{"id":"a6950f12-ceb2-403f-93a8-7d95b35d004c","source_type":"osm"}},{"type":"Feature","geometry":{"type":"Polygon","coordinates":[[[106.4002697,52.7992102],[106.4002329,52.7991938],[106.4002705,52.799163],[106.4003072,52.7991794],[106.4002697,52.7992102]]]},"properties":{"id":"853d3b2b-f82d-4018-b180-a058d93331af","source_type":"osm"}},{"type":"Feature","geometry":{"type":"Polygon","coordinates":[[[106.4028133,52.7952693],[106.4026738,52.7954056],[106.4025009,52.7953408],[106.4026403,52.7952046],[106.4028133,52.7952693]]]},"properties":{"id":"f2ddb836-fcd4-400d-b217-6834b1415634","source_type":"osm"}},{"type":"Feature","geometry":{"type":"Polygon","coordinates":[[[106.4024888,52.7969009],[106.4021696,52.7967841],[106.4022444,52.7967094],[106.4025636,52.7968262],[106.4024888,52.7969009]]]},"properties":{"id":"ff3e0be2-6b92-4764-ad7a-00afd593c5f2","source_type":"osm"}},{"type":"Feature","geometry":{"type":"Polygon","coordinates":[[[106.4012512,52.7991022],[106.4010557,52.7990186],[106.4013828,52.7987393],[106.4020442,52.7990224],[106.4017152,52.7993034],[106.4015161,52.7992181],[106.4017518,52.7990168],[106.4014851,52.7989026],[106.4012512,52.7991022]]]},"properties":{"id":"3efb1ce7-7535-4a4f-9075-2c7779c6cef4","source_type":"osm"}},{"type":"Feature","geometry":{"type":"Polygon","coordinates":[[[106.4016352,52.8045444],[106.4014912,52.8044873],[106.4016201,52.8043684],[106.4018368,52.8044543],[106.4017758,52.8045106],[106.4017031,52.8044817],[106.4016352,52.8045444]]]},"properties":{"id":"9eed3088-247c-40c8-a0c3-08b7329a9ef1","source_type":"osm"}},{"type":"Feature","geometry":{"type":"Polygon","coordinates":[[[106.4006177,52.7983422],[106.4005093,52.7982948],[106.4006354,52.7981894],[106.4007437,52.7982368],[106.4006177,52.7983422]]]},"properties":{"id":"57e551b2-327c-4954-8a56-4fa3f7a852b1","source_type":"osm"}},{"type":"Feature","geometry":{"type":"Polygon","coordinates":[[[106.4001177,52.7993238],[106.400005,52.7994195],[106.3998968,52.7993729],[106.4000095,52.7992772],[106.4001177,52.7993238]]]},"properties":{"id":"5bfa81c6-d57d-41d3-b98e-c34488461988","source_type":"osm"}},{"type":"Feature","geometry":{"type":"Polygon","coordinates":[[[106.4026464,52.799227],[106.4025746,52.7992849],[106.4023815,52.7991973],[106.4024533,52.7991394],[106.4026464,52.799227]]]},"properties":{"id":"586f7261-c328-4993-a45f-b7805dfd430f","source_type":"osm"}},{"type":"Feature","geometry":{"type":"Polygon","coordinates":[[[106.3953388,52.7998292],[106.3952356,52.7996513],[106.3953792,52.7996209],[106.3954971,52.799824],[106.3954029,52.799844],[106.3953882,52.7998187],[106.3953388,52.7998292]]]},"properties":{"id":"f415ee18-d089-41dc-99f1-31927c8cf8fa","source_type":"my"}},{"type":"Feature","geometry":{"type":"Polygon","coordinates":[[[106.3963133,52.7996066],[106.396438,52.7996652],[106.396376,52.7997135],[106.3962514,52.7996549],[106.3963133,52.7996066]]]},"properties":{"id":"191d26bd-d9cd-4389-a834-08436f0bc972","source_type":"my"}},{"type":"Feature","geometry":{"type":"Polygon","coordinates":[[[106.4010816,52.7977709],[106.4011423,52.7977158],[106.4013113,52.797784],[106.4012506,52.797839],[106.4010816,52.7977709]]]},"properties":{"id":"00cf9488-0552-46d8-a01c-0948b2baee86","source_type":"osm"}},{"type":"Feature","geometry":{"type":"Polygon","coordinates":[[[106.3973475,52.7997977],[106.3974499,52.7997114],[106.3976178,52.7997842],[106.3975154,52.7998705],[106.3973475,52.7997977]]]},"properties":{"id":"7aaabd21-b8c9-4fcf-a0bb-c7ca1c009f4e","source_type":"my"}},{"type":"Feature","geometry":{"type":"Polygon","coordinates":[[[106.3931413,52.7948809],[106.392755,52.7946993],[106.3928558,52.7946209],[106.3932421,52.7948026],[106.3931413,52.7948809]]]},"properties":{"id":"d07ea6fc-2511-4776-90cc-d48a57cf2669","source_type":"osm"}},{"type":"Feature","geometry":{"type":"Polygon","coordinates":[[[106.3995201,52.7947875],[106.3994036,52.7947556],[106.399471,52.7946656],[106.3995875,52.7946975],[106.3995201,52.7947875]]]},"properties":{"id":"0726a0b2-6445-4e05-afb8-c798de1944a6","source_type":"osm"}},{"type":"Feature","geometry":{"type":"Polygon","coordinates":[[[106.3964571,52.7948429],[106.3965262,52.7947682],[106.3967515,52.7948444],[106.3966825,52.7949191],[106.3964571,52.7948429]]]},"properties":{"id":"ead62e31-0eb2-4202-8e77-b5601d8e1c02","source_type":"osm"}},{"type":"Feature","geometry":{"type":"Polygon","coordinates":[[[106.4016666,52.796665],[106.4015339,52.7966171],[106.4016492,52.7965003],[106.4017819,52.7965482],[106.4016666,52.796665]]]},"properties":{"id":"487bbc23-3691-4bf2-b68c-84815a1a1918","source_type":"osm"}},{"type":"Feature","geometry":{"type":"Polygon","coordinates":[[[106.4022982,52.7986514],[106.4023612,52.7985922],[106.4024818,52.7986391],[106.4024187,52.7986983],[106.4022982,52.7986514]]]},"properties":{"id":"d656561c-1ad1-436b-bc92-7e7a11afb833","source_type":"osm"}},{"type":"Feature","geometry":{"type":"Polygon","coordinates":[[[106.4001996,52.7980995],[106.4000777,52.7980494],[106.4001557,52.7979738],[106.4002775,52.7980268],[106.4001996,52.7980995]]]},"properties":{"id":"b8e0bbbc-8325-4f0c-bc80-d7a60e3da43a","source_type":"osm"}},{"type":"Feature","geometry":{"type":"Polygon","coordinates":[[[106.4009667,52.7979088],[106.4010296,52.7978521],[106.4012254,52.7979315],[106.4011251,52.7980219],[106.4010027,52.7979722],[106.4010401,52.7979385],[106.4009667,52.7979088]]]},"properties":{"id":"7fc77c7d-af93-4983-b11f-928b3b87f057","source_type":"osm"}},{"type":"Feature","geometry":{"type":"Polygon","coordinates":[[[106.4015912,52.8056041],[106.4012962,52.805473],[106.4017333,52.8051135],[106.4020283,52.8052446],[106.4015912,52.8056041]]]},"properties":{"id":"0b24049c-e1fa-4dd3-b79a-5b87345487e0","source_type":"osm"}},{"type":"Feature","geometry":{"type":"Polygon","coordinates":[[[106.3949537,52.7945908],[106.3950376,52.794473],[106.3955606,52.7946093],[106.3954767,52.794727],[106.3949537,52.7945908]]]},"properties":{"id":"17507acd-0cd5-4b7a-9074-dd107bd91e03","source_type":"osm"}},{"type":"Feature","geometry":{"type":"Polygon","coordinates":[[[106.401527,52.79608],[106.4013809,52.7960347],[106.4014882,52.7959082],[106.4016343,52.7959535],[106.401527,52.79608]]]},"properties":{"id":"63bdfbd8-510b-4513-a0bc-293beb953abd","source_type":"osm"}},{"type":"Feature","geometry":{"type":"Polygon","coordinates":[[[106.4020838,52.7979396],[106.4016653,52.797784],[106.4017474,52.7977033],[106.4021658,52.797859],[106.4020838,52.7979396]]]},"properties":{"id":"498541a7-08a5-49be-9797-f0478678a4a6","source_type":"osm"}},{"type":"Feature","geometry":{"type":"Polygon","coordinates":[[[106.401389,52.7982664],[106.4014749,52.7981934],[106.4018665,52.7983621],[106.4017806,52.798435],[106.401389,52.7982664]]]},"properties":{"id":"c9826b39-d690-4761-a60f-e7ce6a5c0711","source_type":"osm"}},{"type":"Feature","geometry":{"type":"Polygon","coordinates":[[[106.4018906,52.7999076],[106.401558,52.7997535],[106.4016765,52.79966],[106.4018827,52.7997556],[106.4020737,52.7996049],[106.4022,52.7996634],[106.4018906,52.7999076]]]},"properties":{"id":"a22ba714-55f2-4904-b97c-3bd92954c4ca","source_type":"osm"}},{"type":"Feature","geometry":{"type":"Polygon","coordinates":[[[106.4023564,52.8048005],[106.4019537,52.8046506],[106.4020543,52.8045519],[106.402457,52.8047018],[106.4023564,52.8048005]]]},"properties":{"id":"6cf85966-6d3b-44fe-8890-b4c4d2beb017","source_type":"osm"}},{"type":"Feature","geometry":{"type":"Polygon","coordinates":[[[106.3998884,52.8044569],[106.3997891,52.8045639],[106.3996768,52.8045259],[106.3997761,52.8044189],[106.3998884,52.8044569]]]},"properties":{"id":"41b87ddc-60ea-47c7-bbeb-a387ae520b8d","source_type":"osm"}},{"type":"Feature","geometry":{"type":"Polygon","coordinates":[[[106.3986255,52.7948339],[106.3986773,52.7947706],[106.3989536,52.7948534],[106.3988818,52.7949411],[106.3987855,52.7949123],[106.3988055,52.7948878],[106.3986255,52.7948339]]]},"properties":{"id":"27c949dc-efc3-4e6f-b966-10c119686abf","source_type":"osm"}},{"type":"Feature","geometry":{"type":"Polygon","coordinates":[[[106.4032438,52.797908],[106.4027958,52.7977507],[106.4029344,52.7976064],[106.4033823,52.7977637],[106.4032438,52.797908]]]},"properties":{"id":"9f19a791-f81b-4fe7-b8a7-b8c37ea6c450","source_type":"osm"}},{"type":"Feature","geometry":{"type":"Polygon","coordinates":[[[106.3969275,52.7995919],[106.396759,52.799518],[106.3968567,52.7994366],[106.3970251,52.7995105],[106.3969275,52.7995919]]]},"properties":{"id":"afef6218-9596-41fb-8a87-fefed28eacac","source_type":"my"}},{"type":"Feature","geometry":{"type":"Polygon","coordinates":[[[106.3966655,52.7997837],[106.3969013,52.7998909],[106.3968061,52.7999674],[106.3965703,52.7998602],[106.3966655,52.7997837]]]},"properties":{"id":"e67b60fd-247b-45bf-8203-b2c59a54159e","source_type":"my"}},{"type":"Feature","geometry":{"type":"Polygon","coordinates":[[[106.3997999,52.8039148],[106.3996738,52.8038732],[106.3998186,52.8037126],[106.3999447,52.8037542],[106.3997999,52.8039148]]]},"properties":{"id":"c5dcb593-8abb-40e5-94ba-169e7c449a70","source_type":"osm"}},{"type":"Feature","geometry":{"type":"Polygon","coordinates":[[[106.3947254,52.7948315],[106.394764,52.7947763],[106.3951127,52.7948655],[106.3950741,52.7949207],[106.3947254,52.7948315]]]},"properties":{"id":"25edd45f-a27a-499e-8585-de22aa652680","source_type":"osm"}},{"type":"Feature","geometry":{"type":"Polygon","coordinates":[[[106.3969902,52.7951607],[106.3968883,52.7952759],[106.3967129,52.7952191],[106.3968148,52.7951039],[106.3969902,52.7951607]]]},"properties":{"id":"9eaacaad-3697-4ae4-8d95-8093193351f2","source_type":"osm"}},{"type":"Feature","geometry":{"type":"Polygon","coordinates":[[[106.4008761,52.7968708],[106.4007105,52.7968166],[106.4009224,52.7965798],[106.4010366,52.7966172],[106.4009102,52.7967583],[106.4009617,52.7967751],[106.4008761,52.7968708]]]},"properties":{"id":"4ec16c1e-4cdf-4704-85fe-16da8b325fa5","source_type":"osm"}},{"type":"Feature","geometry":{"type":"Polygon","coordinates":[[[106.3986236,52.7970888],[106.3983312,52.7969607],[106.3984566,52.7968561],[106.398749,52.7969842],[106.3986236,52.7970888]]]},"properties":{"id":"4aefc2e8-5a29-46c6-a6ad-582ce76691a8","source_type":"osm"}},{"type":"Feature","geometry":{"type":"Polygon","coordinates":[[[106.4015017,52.7975699],[106.4013944,52.7976753],[106.4012473,52.7976206],[106.4013546,52.7975151],[106.4015017,52.7975699]]]},"properties":{"id":"b3edbcd4-5f55-4ce9-bf83-9069550a0f3a","source_type":"osm"}},{"type":"Feature","geometry":{"type":"Polygon","coordinates":[[[106.3988421,52.797719],[106.3983732,52.7975144],[106.3985118,52.7974084],[106.3989767,52.7976106],[106.3988421,52.797719]]]},"properties":{"id":"8393462d-d93a-41d5-a45a-50a05a74ee36","source_type":"osm"}},{"type":"Feature","geometry":{"type":"Polygon","coordinates":[[[106.4034362,52.8008153],[106.4029422,52.8012275],[106.402788,52.80116],[106.4028947,52.801071],[106.4030436,52.8009467],[106.4031912,52.8008235],[106.4032819,52.8007478],[106.4034362,52.8008153]]]},"properties":{"id":"0cb2e397-4e6e-466d-91e3-78e1789985c6","source_type":"osm"}}]}
