{
"type": "FeatureCollection",
"name": "overture",
"features": [
{ "type": "Feature", "properties": { "id": "0f65a213-4146-4baf-a74c-449997d95882", "source_type": "ml", "height": null, "num_floors": null, "subtype": null, "class": null, "primary_source": "Microsoft ML Buildings" }, "geometry": { "type": "Polygon", "coordinates": [ [ [ 50.1298458, 53.5236338 ], [ 50.1297384, 53.5236137 ], [ 50.1297997, 53.5234976 ], [ 50.1298705, 53.5235108 ], [ 50.1298812, 53.5234905 ], [ 50.1299179, 53.5234974 ], [ 50.1299087, 53.5235148 ], [ 50.1298794, 53.5235093 ], [ 50.129841, 53.5235819 ], [ 50.1298703, 53.5235873 ], [ 50.1298458, 53.5236338 ] ] ] } },
{ "type": "Feature", "properties": { "id": "a2d0f433-088d-4644-9876-0b0aed748ced", "source_type": "ml", "height": null, "num_floors": null, "subtype": null, "class": null, "primary_source": "Microsoft ML Buildings" }, "geometry": { "type": "Polygon", "coordinates": [ [ [ 50.1296989, 53.523901 ], [ 50.1296563, 53.5238944 ], [ 50.1296889, 53.5238203 ], [ 50.1297316, 53.523827 ], [ 50.1296989, 53.523901 ] ] ] } },
{ "type": "Feature", "properties": { "id": "0e9726ce-7ada-4951-94e1-b57f344078aa", "source_type": "osm", "height": null, "num_floors": null, "subtype": null, "class": null, "primary_source": "OpenStreetMap" }, "geometry": { "type": "Polygon", "coordinates": [ [ [ 50.1299407, 53.5239161 ], [ 50.1298031, 53.5238767 ], [ 50.1298684, 53.5237962 ], [ 50.1299652, 53.5238239 ], [ 50.1299442, 53.5238498 ], [ 50.1299851, 53.5238615 ], [ 50.1299407, 53.5239161 ] ] ] } },
{ "type": "Feature", "properties": { "id": "b9ac1529-daf7-4cfc-961c-b4af323beafa", "source_type": "ml", "height": null, "num_floors": null, "subtype": null, "class": null, "primary_source": "Microsoft ML Buildings" }, "geometry": { "type": "Polygon", "coordinates": [ [ [ 50.1297941, 53.5241356 ], [ 50.1298166, 53.524111 ], [ 50.1298808, 53.5241317 ], [ 50.1298583, 53.5241563 ], [ 50.1297941, 53.5241356 ] ] ] } },
{ "type": "Feature", "properties": { "id": "1ba3365e-1762-4b2b-a0e0-a5cfca79fa13", "source_type": "ml", "height": null, "num_floors": null, "subtype": null, "class": null, "primary_source": "Microsoft ML Buildings" }, "geometry": { "type": "Polygon", "coordinates": [ [ [ 50.1298087, 53.5242008 ], [ 50.1297515, 53.5241928 ], [ 50.1297655, 53.5241575 ], [ 50.1298227, 53.5241655 ], [ 50.1298087, 53.5242008 ] ] ] } },
{ "type": "Feature", "properties": { "id": "c6cf5462-77b9-46c7-80fc-95f0165a4ad9", "source_type": "ml", "height": null, "num_floors": null, "subtype": null, "class": null, "primary_source": "Microsoft ML Buildings" }, "geometry": { "type": "Polygon", "coordinates": [ [ [ 50.1299579, 53.5242823 ], [ 50.1298681, 53.5242692 ], [ 50.1298839, 53.524231 ], [ 50.1299737, 53.5242441 ], [ 50.1299579, 53.5242823 ] ] ] } },
{ "type": "Feature", "properties": { "id": "59ce2079-502c-4a2a-b265-66426e1bbd11", "source_type": "my", "height": null, "num_floors": 2, "subtype": "residential", "class": "house", "primary_source": "OpenStreetMap" }, "geometry": { "type": "Polygon", "coordinates": [ [ [ 50.1298103, 53.5243716 ], [ 50.1296952, 53.5243361 ], [ 50.1297545, 53.5242682 ], [ 50.1298696, 53.5243037 ], [ 50.1298103, 53.5243716 ] ] ] } },
{ "type": "Feature", "properties": { "id": "af988594-afac-4419-8742-623740133f66", "source_type": "my", "height": null, "num_floors": null, "subtype": "residential", "class": "house", "primary_source": "OpenStreetMap" }, "geometry": { "type": "Polygon", "coordinates": [ [ [ 50.1292917, 53.5243182 ], [ 50.1293599, 53.5243369 ], [ 50.129322, 53.5243857 ], [ 50.1292539, 53.5243671 ], [ 50.1292917, 53.5243182 ] ] ] } },
{ "type": "Feature", "properties": { "id": "e5a6eec0-d4bf-422e-9e76-af173d1bfaa9", "source_type": "ml", "height": null, "num_floors": null, "subtype": null, "class": null, "primary_source": "Microsoft ML Buildings" }, "geometry": { "type": "Polygon", "coordinates": [ [ [ 50.1282542, 53.5243405 ], [ 50.1282816, 53.5242979 ], [ 50.1282301, 53.5242862 ], [ 50.1282448, 53.5242634 ], [ 50.1283197, 53.5242804 ], [ 50.1282776, 53.5243458 ], [ 50.1282542, 53.5243405 ] ] ] } },
{ "type": "Feature", "properties": { "id": "b0f6780b-f9cc-4e7d-977e-0b0792e30953", "source_type": "ml", "height": null, "num_floors": null, "subtype": null, "class": null, "primary_source": "Microsoft ML Buildings" }, "geometry": { "type": "Polygon", "coordinates": [ [ [ 50.1281605, 53.5241946 ], [ 50.1281982, 53.5241271 ], [ 50.1282393, 53.5241352 ], [ 50.1282015, 53.5242027 ], [ 50.1281605, 53.5241946 ] ] ] } },
{ "type": "Feature", "properties": { "id": "a431fd15-4b5d-49e8-a8fe-ba49d25e5d4a", "source_type": "ml", "height": null, "num_floors": null, "subtype": null, "class": null, "primary_source": "Microsoft ML Buildings" }, "geometry": { "type": "Polygon", "coordinates": [ [ [ 50.1277536, 53.5242097 ], [ 50.1279491, 53.5242508 ], [ 50.1279221, 53.5242961 ], [ 50.1277266, 53.524255 ], [ 50.1277536, 53.5242097 ] ] ] } },
{ "type": "Feature", "properties": { "id": "882360f5-d2ef-4289-8811-0c3684eb628d", "source_type": "ml", "height": null, "num_floors": null, "subtype": null, "class": null, "primary_source": "Microsoft ML Buildings" }, "geometry": { "type": "Polygon", "coordinates": [ [ [ 50.1280295, 53.5240228 ], [ 50.1280705, 53.5239643 ], [ 50.1282019, 53.5239969 ], [ 50.128161, 53.5240553 ], [ 50.1280295, 53.5240228 ] ] ] } },
{ "type": "Feature", "properties": { "id": "7e112e75-407c-4ea8-a92c-eb051a719e45", "source_type": "ml", "height": null, "num_floors": null, "subtype": null, "class": null, "primary_source": "Microsoft ML Buildings" }, "geometry": { "type": "Polygon", "coordinates": [ [ [ 50.1279414, 53.5241346 ], [ 50.1278647, 53.5241167 ], [ 50.1279594, 53.523973 ], [ 50.1280361, 53.5239908 ], [ 50.1279414, 53.5241346 ] ] ] } },
{ "type": "Feature", "properties": { "id": "59784be7-d0ed-48e0-a932-bb0f32418ca1", "source_type": "ml", "height": null, "num_floors": null, "subtype": null, "class": null, "primary_source": "Microsoft ML Buildings" }, "geometry": { "type": "Polygon", "coordinates": [ [ [ 50.1282622, 53.5241274 ], [ 50.1282105, 53.5241139 ], [ 50.1282361, 53.5240791 ], [ 50.1282878, 53.5240926 ], [ 50.1282622, 53.5241274 ] ] ] } },
{ "type": "Feature", "properties": { "id": "c08e8d9d-8c23-4c96-9f24-baa9bb12e6b8", "source_type": "ml", "height": null, "num_floors": null, "subtype": null, "class": null, "primary_source": "Microsoft ML Buildings" }, "geometry": { "type": "Polygon", "coordinates": [ [ [ 50.1285589, 53.5239409 ], [ 50.1286824, 53.5239714 ], [ 50.128644, 53.5240264 ], [ 50.1285205, 53.5239959 ], [ 50.1285589, 53.5239409 ] ] ] } },
{ "type": "Feature", "properties": { "id": "33088063-c680-4401-9bc8-a8682f7eda6d", "source_type": "my", "height": null, "num_floors": null, "subtype": "residential", "class": "house", "primary_source": "OpenStreetMap" }, "geometry": { "type": "Polygon", "coordinates": [ [ [ 50.1290064, 53.5241506 ], [ 50.128925, 53.5241264 ], [ 50.1289804, 53.5240606 ], [ 50.1290618, 53.5240848 ], [ 50.1290064, 53.5241506 ] ] ] } },
{ "type": "Feature", "properties": { "id": "17081409-20c4-4c1b-ae20-1d395a768e12", "source_type": "ml", "height": null, "num_floors": null, "subtype": null, "class": null, "primary_source": "Microsoft ML Buildings" }, "geometry": { "type": "Polygon", "coordinates": [ [ [ 50.1285, 53.5241204 ], [ 50.1285314, 53.5240775 ], [ 50.1286035, 53.5240961 ], [ 50.1285722, 53.524139 ], [ 50.1285, 53.5241204 ] ] ] } },
{ "type": "Feature", "properties": { "id": "8d660132-026b-40a3-903a-45c838dea61f", "source_type": "ml", "height": null, "num_floors": null, "subtype": null, "class": null, "primary_source": "Microsoft ML Buildings" }, "geometry": { "type": "Polygon", "coordinates": [ [ [ 50.1286523, 53.5242296 ], [ 50.128686, 53.5242363 ], [ 50.1286629, 53.524277 ], [ 50.1286292, 53.5242702 ], [ 50.1286523, 53.5242296 ] ] ] } },
{ "type": "Feature", "properties": { "id": "d6823c24-ec20-4e56-a839-070826765405", "source_type": "my", "height": null, "num_floors": 1, "subtype": "residential", "class": "house", "primary_source": "OpenStreetMap" }, "geometry": { "type": "Polygon", "coordinates": [ [ [ 50.1292899, 53.5241459 ], [ 50.1293725, 53.5241661 ], [ 50.1293183, 53.5242444 ], [ 50.1292292, 53.5242226 ], [ 50.1292546, 53.5241859 ], [ 50.1292353, 53.5241812 ], [ 50.1292517, 53.5241575 ], [ 50.1292775, 53.5241638 ], [ 50.1292899, 53.5241459 ] ] ] } },
{ "type": "Feature", "properties": { "id": "34fb2ea4-a042-4d69-a0e6-f4576a1b0ee8", "source_type": "ml", "height": null, "num_floors": null, "subtype": null, "class": null, "primary_source": "Microsoft ML Buildings" }, "geometry": { "type": "Polygon", "coordinates": [ [ [ 50.1290395, 53.524228 ], [ 50.1290972, 53.5242384 ], [ 50.1290826, 53.524267 ], [ 50.1290249, 53.5242566 ], [ 50.1290395, 53.524228 ] ] ] } },
{ "type": "Feature", "properties": { "id": "f63b45ba-0508-4f69-a092-950b1d41e996", "source_type": "my", "height": null, "num_floors": 2, "subtype": "residential", "class": "house", "primary_source": "OpenStreetMap" }, "geometry": { "type": "Polygon", "coordinates": [ [ [ 50.1295389, 53.5242025 ], [ 50.1296293, 53.5242287 ], [ 50.1295769, 53.5242924 ], [ 50.1294614, 53.5242588 ], [ 50.1294948, 53.5242183 ], [ 50.1295199, 53.5242256 ], [ 50.1295389, 53.5242025 ] ] ] } },
{ "type": "Feature", "properties": { "id": "c5abcf83-43d5-40d7-b322-238eb18cc149", "source_type": "ml", "height": null, "num_floors": null, "subtype": null, "class": null, "primary_source": "Microsoft ML Buildings" }, "geometry": { "type": "Polygon", "coordinates": [ [ [ 50.1295019, 53.523974 ], [ 50.1295587, 53.5239892 ], [ 50.1295395, 53.5240144 ], [ 50.1294827, 53.5239991 ], [ 50.1295019, 53.523974 ] ] ] } },
{ "type": "Feature", "properties": { "id": "b5c5dc4c-8844-4d40-800e-05acbef317e4", "source_type": "ml", "height": null, "num_floors": null, "subtype": null, "class": null, "primary_source": "Microsoft ML Buildings" }, "geometry": { "type": "Polygon", "coordinates": [ [ [ 50.1293312, 53.5238187 ], [ 50.1293906, 53.5238391 ], [ 50.1293623, 53.5238682 ], [ 50.1293029, 53.5238479 ], [ 50.1293312, 53.5238187 ] ] ] } },
{ "type": "Feature", "properties": { "id": "15262454-ab0e-4aa2-af7c-4b0fd56cad5c", "source_type": "ml", "height": null, "num_floors": null, "subtype": null, "class": null, "primary_source": "Microsoft ML Buildings" }, "geometry": { "type": "Polygon", "coordinates": [ [ [ 50.128778, 53.5238715 ], [ 50.1287932, 53.5238442 ], [ 50.1288803, 53.5238614 ], [ 50.1288651, 53.5238887 ], [ 50.128778, 53.5238715 ] ] ] } },
{ "type": "Feature", "properties": { "id": "9758a778-a0d2-4b41-a413-8919930ecb51", "source_type": "ml", "height": null, "num_floors": null, "subtype": null, "class": null, "primary_source": "Microsoft ML Buildings" }, "geometry": { "type": "Polygon", "coordinates": [ [ [ 50.1288203, 53.5239479 ], [ 50.1287584, 53.5239373 ], [ 50.1287701, 53.5239131 ], [ 50.128832, 53.5239238 ], [ 50.1288203, 53.5239479 ] ] ] } },
{ "type": "Feature", "properties": { "id": "9086349e-f178-467e-bd79-d5f54680dc61", "source_type": "ml", "height": null, "num_floors": null, "subtype": null, "class": null, "primary_source": "Microsoft ML Buildings" }, "geometry": { "type": "Polygon", "coordinates": [ [ [ 50.128612, 53.5239008 ], [ 50.1286332, 53.5238729 ], [ 50.1287111, 53.5238939 ], [ 50.12869, 53.5239217 ], [ 50.128612, 53.5239008 ] ] ] } },
{ "type": "Feature", "properties": { "id": "4fc76e80-0c4b-451c-9c3e-980532bcae36", "source_type": "ml", "height": null, "num_floors": null, "subtype": null, "class": null, "primary_source": "Microsoft ML Buildings" }, "geometry": { "type": "Polygon", "coordinates": [ [ [ 50.1287132, 53.5237852 ], [ 50.128738, 53.5237559 ], [ 50.1288064, 53.5237765 ], [ 50.1287816, 53.5238057 ], [ 50.1287132, 53.5237852 ] ] ] } },
{ "type": "Feature", "properties": { "id": "02300d09-dd65-4fe1-a47d-24666b139dc0", "source_type": "ml", "height": null, "num_floors": null, "subtype": null, "class": null, "primary_source": "Microsoft ML Buildings" }, "geometry": { "type": "Polygon", "coordinates": [ [ [ 50.1286396, 53.5236679 ], [ 50.1286985, 53.5236988 ], [ 50.1286599, 53.5237248 ], [ 50.128601, 53.5236939 ], [ 50.1286396, 53.5236679 ] ] ] } },
{ "type": "Feature", "properties": { "id": "d1cec567-ee0a-4245-971d-6c3ae9239762", "source_type": "ml", "height": null, "num_floors": null, "subtype": null, "class": null, "primary_source": "Microsoft ML Buildings" }, "geometry": { "type": "Polygon", "coordinates": [ [ [ 50.1286428, 53.5236563 ], [ 50.128653, 53.523633 ], [ 50.128751, 53.5236481 ], [ 50.1287408, 53.5236714 ], [ 50.1286428, 53.5236563 ] ] ] } },
{ "type": "Feature", "properties": { "id": "a3eb90de-8756-48e1-ba76-692e0af731ab", "source_type": "ml", "height": null, "num_floors": null, "subtype": null, "class": null, "primary_source": "Microsoft ML Buildings" }, "geometry": { "type": "Polygon", "coordinates": [ [ [ 50.1287171, 53.5236413 ], [ 50.1286607, 53.523625 ], [ 50.1286804, 53.523601 ], [ 50.1287367, 53.5236174 ], [ 50.1287171, 53.5236413 ] ] ] } },
{ "type": "Feature", "properties": { "id": "4b9d0925-b17b-4c2a-b871-1612042709c3", "source_type": "ml", "height": null, "num_floors": null, "subtype": null, "class": null, "primary_source": "Microsoft ML Buildings" }, "geometry": { "type": "Polygon", "coordinates": [ [ [ 50.1288523, 53.5236639 ], [ 50.1288658, 53.5236394 ], [ 50.1289579, 53.5236572 ], [ 50.1289444, 53.5236817 ], [ 50.1288523, 53.5236639 ] ] ] } },
{ "type": "Feature", "properties": { "id": "92ffad9e-6547-4a97-a714-3444eb888f36", "source_type": "ml", "height": null, "num_floors": null, "subtype": null, "class": null, "primary_source": "Microsoft ML Buildings" }, "geometry": { "type": "Polygon", "coordinates": [ [ [ 50.1294227, 53.5237231 ], [ 50.1294486, 53.5236905 ], [ 50.1295034, 53.5237059 ], [ 50.1294775, 53.5237385 ], [ 50.1294227, 53.5237231 ] ] ] } },
{ "type": "Feature", "properties": { "id": "94d70ef7-e2fe-4293-8445-65318106bb71", "source_type": "ml", "height": null, "num_floors": null, "subtype": null, "class": null, "primary_source": "Microsoft ML Buildings" }, "geometry": { "type": "Polygon", "coordinates": [ [ [ 50.129509, 53.5235601 ], [ 50.1295266, 53.5235321 ], [ 50.1295854, 53.5235452 ], [ 50.1295678, 53.5235732 ], [ 50.129509, 53.5235601 ] ] ] } },
{ "type": "Feature", "properties": { "id": "79cc0a59-1fe3-4928-88a6-2353a7d24df9", "source_type": "ml", "height": null, "num_floors": null, "subtype": null, "class": null, "primary_source": "Microsoft ML Buildings" }, "geometry": { "type": "Polygon", "coordinates": [ [ [ 50.129254, 53.5236251 ], [ 50.1292, 53.5236154 ], [ 50.1291955, 53.5236241 ], [ 50.1291451, 53.5236151 ], [ 50.1291694, 53.5235674 ], [ 50.1292738, 53.5235863 ], [ 50.129254, 53.5236251 ] ] ] } },
{ "type": "Feature", "properties": { "id": "0c0f20c1-a0ae-400f-a495-de6216367591", "source_type": "ml", "height": null, "num_floors": null, "subtype": null, "class": null, "primary_source": "Microsoft ML Buildings" }, "geometry": { "type": "Polygon", "coordinates": [ [ [ 50.1288186, 53.523545 ], [ 50.1287261, 53.5235211 ], [ 50.1287692, 53.523462 ], [ 50.1288618, 53.5234859 ], [ 50.1288186, 53.523545 ] ] ] } },
{ "type": "Feature", "properties": { "id": "01231652-214d-43fc-b6f3-9b20344bd887", "source_type": "ml", "height": null, "num_floors": null, "subtype": null, "class": null, "primary_source": "Microsoft ML Buildings" }, "geometry": { "type": "Polygon", "coordinates": [ [ [ 50.1288586, 53.5235688 ], [ 50.1289037, 53.5234976 ], [ 50.1289789, 53.5235144 ], [ 50.1289338, 53.5235856 ], [ 50.1288586, 53.5235688 ] ] ] } },
{ "type": "Feature", "properties": { "id": "a14b7e88-8ab1-40a1-8181-9d8096679c3a", "source_type": "ml", "height": null, "num_floors": null, "subtype": null, "class": null, "primary_source": "Microsoft ML Buildings" }, "geometry": { "type": "Polygon", "coordinates": [ [ [ 50.1288078, 53.5235951 ], [ 50.1287596, 53.5235939 ], [ 50.1287622, 53.5235557 ], [ 50.1288104, 53.5235569 ], [ 50.1288078, 53.5235951 ] ] ] } },
{ "type": "Feature", "properties": { "id": "413fc3da-5828-4484-90dd-643b0d7cdefb", "source_type": "osm", "height": null, "num_floors": null, "subtype": null, "class": null, "primary_source": "OpenStreetMap" }, "geometry": { "type": "Polygon", "coordinates": [ [ [ 50.1285404, 53.5235911 ], [ 50.1284352, 53.5235653 ], [ 50.1284931, 53.5234819 ], [ 50.1285983, 53.5235077 ], [ 50.1285404, 53.5235911 ] ] ] } },
{ "type": "Feature", "properties": { "id": "442a3806-03da-4627-b7d4-57ebe879d6ef", "source_type": "ml", "height": null, "num_floors": null, "subtype": null, "class": null, "primary_source": "Microsoft ML Buildings" }, "geometry": { "type": "Polygon", "coordinates": [ [ [ 50.1277368, 53.5234193 ], [ 50.1277545, 53.5233623 ], [ 50.1277974, 53.523367 ], [ 50.1277796, 53.523424 ], [ 50.1277368, 53.5234193 ] ] ] } },
{ "type": "Feature", "properties": { "id": "e755b019-0fbb-4932-a721-4f30b914a8bc", "source_type": "my", "height": null, "num_floors": null, "subtype": "residential", "class": "house", "primary_source": "OpenStreetMap" }, "geometry": { "type": "Polygon", "coordinates": [ [ [ 50.1278429, 53.5236045 ], [ 50.1277287, 53.5235765 ], [ 50.1277831, 53.5234979 ], [ 50.1278973, 53.5235258 ], [ 50.1278429, 53.5236045 ] ] ] } },
{ "type": "Feature", "properties": { "id": "90d4cedb-763a-4a6d-940a-bd441d6f6b21", "source_type": "ml", "height": null, "num_floors": null, "subtype": null, "class": null, "primary_source": "Microsoft ML Buildings" }, "geometry": { "type": "Polygon", "coordinates": [ [ [ 50.12738, 53.523661 ], [ 50.1273879, 53.5235815 ], [ 50.1274975, 53.5235854 ], [ 50.1274896, 53.5236648 ], [ 50.12738, 53.523661 ] ] ] } },
{ "type": "Feature", "properties": { "id": "9d4b1d55-e473-4fe4-a6ec-9e81e0a0921c", "source_type": "ml", "height": null, "num_floors": null, "subtype": null, "class": null, "primary_source": "Microsoft ML Buildings" }, "geometry": { "type": "Polygon", "coordinates": [ [ [ 50.1276977, 53.5237046 ], [ 50.1277773, 53.5237255 ], [ 50.1277544, 53.5237562 ], [ 50.1276749, 53.5237352 ], [ 50.1276977, 53.5237046 ] ] ] } },
{ "type": "Feature", "properties": { "id": "2e16e336-e014-4710-a893-4452b565fbdf", "source_type": "my", "height": null, "num_floors": 1, "subtype": "residential", "class": "house", "primary_source": "OpenStreetMap" }, "geometry": { "type": "Polygon", "coordinates": [ [ [ 50.1281257, 53.5238836 ], [ 50.128037, 53.523864 ], [ 50.1280624, 53.5238235 ], [ 50.1281511, 53.5238431 ], [ 50.1281257, 53.5238836 ] ] ] } },
{ "type": "Feature", "properties": { "id": "f5c23fec-340a-4b21-ac13-c4a9aaaa62bd", "source_type": "my", "height": null, "num_floors": null, "subtype": "residential", "class": "house", "primary_source": "OpenStreetMap" }, "geometry": { "type": "Polygon", "coordinates": [ [ [ 50.1283945, 53.5239258 ], [ 50.1283711, 53.523952 ], [ 50.1283048, 53.5239309 ], [ 50.1283522, 53.5238783 ], [ 50.1284345, 53.5239044 ], [ 50.1284107, 53.523931 ], [ 50.1283945, 53.5239258 ] ] ] } },
{ "type": "Feature", "properties": { "id": "5d5b49ec-bea1-4213-a74f-cc0308174747", "source_type": "ml", "height": null, "num_floors": null, "subtype": null, "class": null, "primary_source": "Microsoft ML Buildings" }, "geometry": { "type": "Polygon", "coordinates": [ [ [ 50.1278911, 53.5239088 ], [ 50.1279617, 53.5239178 ], [ 50.1279507, 53.5239483 ], [ 50.1278802, 53.5239393 ], [ 50.1278911, 53.5239088 ] ] ] } },
{ "type": "Feature", "properties": { "id": "ab6b858d-a3d1-47d6-a2fd-b7ab115fd314", "source_type": "ml", "height": null, "num_floors": null, "subtype": null, "class": null, "primary_source": "Microsoft ML Buildings" }, "geometry": { "type": "Polygon", "coordinates": [ [ [ 50.1275861, 53.5238469 ], [ 50.1274775, 53.5238308 ], [ 50.1274944, 53.5237903 ], [ 50.127603, 53.5238063 ], [ 50.1275861, 53.5238469 ] ] ] } },
{ "type": "Feature", "properties": { "id": "b3729b1d-3b4b-437d-95be-ec80dd0c44aa", "source_type": "ml", "height": null, "num_floors": null, "subtype": null, "class": null, "primary_source": "Microsoft ML Buildings" }, "geometry": { "type": "Polygon", "coordinates": [ [ [ 50.1272114, 53.5238621 ], [ 50.1271647, 53.5238551 ], [ 50.1271903, 53.5237945 ], [ 50.127237, 53.5238014 ], [ 50.1272114, 53.5238621 ] ] ] } },
{ "type": "Feature", "properties": { "id": "686fb332-00b1-4270-b0f8-e971806cbbdb", "source_type": "ml", "height": null, "num_floors": null, "subtype": null, "class": null, "primary_source": "Microsoft ML Buildings" }, "geometry": { "type": "Polygon", "coordinates": [ [ [ 50.1268852, 53.5236373 ], [ 50.1268413, 53.523629 ], [ 50.1268617, 53.5235907 ], [ 50.1269056, 53.5235989 ], [ 50.1268852, 53.5236373 ] ] ] } },
{ "type": "Feature", "properties": { "id": "6caaf011-bb5d-443a-adb9-9f9c3c19a968", "source_type": "my", "height": null, "num_floors": null, "subtype": "residential", "class": "house", "primary_source": "OpenStreetMap" }, "geometry": { "type": "Polygon", "coordinates": [ [ [ 50.1270669, 53.5237163 ], [ 50.1269945, 53.5236992 ], [ 50.1270255, 53.5236529 ], [ 50.1270979, 53.52367 ], [ 50.1270669, 53.5237163 ] ] ] } },
{ "type": "Feature", "properties": { "id": "b4d1ed8e-ce1c-4ed2-ac38-c04a8052f9d1", "source_type": "my", "height": null, "num_floors": 1, "subtype": "residential", "class": "house", "primary_source": "OpenStreetMap" }, "geometry": { "type": "Polygon", "coordinates": [ [ [ 50.1270379, 53.5234416 ], [ 50.1269654, 53.5235357 ], [ 50.1268261, 53.5234977 ], [ 50.1268985, 53.5234037 ], [ 50.1270379, 53.5234416 ] ] ] } },
{ "type": "Feature", "properties": { "id": "111f159a-7491-4bb2-b9a9-c860f5c3e21f", "source_type": "my", "height": null, "num_floors": null, "subtype": "residential", "class": "house", "primary_source": "OpenStreetMap" }, "geometry": { "type": "Polygon", "coordinates": [ [ [ 50.1270685, 53.5235556 ], [ 50.1269912, 53.5235332 ], [ 50.1270268, 53.52349 ], [ 50.127104, 53.5235125 ], [ 50.1270685, 53.5235556 ] ] ] } }
]
}
