{
  "type": "FeatureCollection",
  "features": [
    {
      "type": "Feature",
      "id": "way/1521895545",
      "properties": {
        "timestamp": "2026-05-25T20:07:01Z",
        "version": "1",
        "changeset": "183175860",
        "user": "Pakei",
        "uid": "23932419",
        "addr:city": "Усть-Кинельский",
        "addr:housenumber": "25",
        "addr:place": "СДТ Завода им. Фрунзе",
        "addr:postcode": "449003",
        "addr:street": "5-я линия",
        "building": "house",
        "building:levels": "2",
        "height": "6",
        "house": "terraced",
        "name": "Собственный дом",
        "id": "way/1521895545"
      },
      "geometry": {
        "type": "Polygon",
        "coordinates": [
          [
            [
              50.6592396,
              53.2822369
            ],
            [
              50.6592483,
              53.282191
            ],
            [
              50.6592537,
              53.2821603
            ],
            [
              50.6594407,
              53.2821706
            ],
            [
              50.6594268,
              53.2822485
            ],
            [
              50.6592396,
              53.2822369
            ]
          ]
        ]
      }
    },
    {
      "type": "Feature",
      "id": "way/1521895546",
      "properties": {
        "timestamp": "2026-05-25T20:07:01Z",
        "version": "1",
        "changeset": "183175860",
        "user": "Pakei",
        "uid": "23932419",
        "addr:city": "Усть-Кинельский",
        "addr:housenumber": "27",
        "addr:place": "СДТ Завода им. Фрунзе",
        "addr:postcode": "449003",
        "addr:street": "5-я линия",
        "building": "house",
        "building:levels": "1",
        "height": "3",
        "house": "terraced",
        "name": "Собственный дом",
        "id": "way/1521895546"
      },
      "geometry": {
        "type": "Polygon",
        "coordinates": [
          [
            [
              50.6592763,
              53.28238
            ],
            [
              50.659307,
              53.2822939
            ],
            [
              50.659428,
              53.2823017
            ],
            [
              50.6593975,
              53.2823908
            ],
            [
              50.6593449,
              53.2823866
            ],
            [
              50.6592763,
              53.28238
            ]
          ]
        ]
      }
    },
    {
      "type": "Feature",
      "id": "way/1521895547",
      "properties": {
        "timestamp": "2026-05-25T20:07:01Z",
        "version": "1",
        "changeset": "183175860",
        "user": "Pakei",
        "uid": "23932419",
        "addr:city": "Усть-Кинельский",
        "addr:housenumber": "23",
        "addr:place": "СДТ Завода им. Фрунзе",
        "addr:postcode": "449003",
        "addr:street": "5-я линия",
        "building": "house",
        "building:levels": "2",
        "height": "6",
        "house": "terraced",
        "name": "Собственный дом",
        "id": "way/1521895547"
      },
      "geometry": {
        "type": "Polygon",
        "coordinates": [
          [
            [
              50.6590637,
              53.2822084
            ],
            [
              50.6590832,
              53.2821462
            ],
            [
              50.659191,
              53.2821567
            ],
            [
              50.6591707,
              53.2822207
            ],
            [
              50.6590637,
              53.2822084
            ]
          ]
        ]
      }
    },
    {
      "type": "Feature",
      "id": "way/1521895548",
      "properties": {
        "timestamp": "2026-05-25T20:07:01Z",
        "version": "1",
        "changeset": "183175860",
        "user": "Pakei",
        "uid": "23932419",
        "addr:city": "Усть-Кинельский",
        "addr:housenumber": "19",
        "addr:place": "СДТ Завода им. Фрунзе",
        "addr:postcode": "449003",
        "addr:street": "5-я линия",
        "building": "house",
        "building:levels": "1",
        "height": "3",
        "house": "terraced",
        "name": "Собственный дом",
        "id": "way/1521895548"
      },
      "geometry": {
        "type": "Polygon",
        "coordinates": [
          [
            [
              50.6585508,
              53.282227
            ],
            [
              50.6585802,
              53.2821144
            ],
            [
              50.6586706,
              53.2821223
            ],
            [
              50.6586406,
              53.2822354
            ],
            [
              50.6585508,
              53.282227
            ]
          ]
        ]
      }
    },
    {
      "type": "Feature",
      "id": "way/1521895549",
      "properties": {
        "timestamp": "2026-05-25T20:07:01Z",
        "version": "1",
        "changeset": "183175860",
        "user": "Pakei",
        "uid": "23932419",
        "addr:city": "Усть-Кинельский",
        "addr:housenumber": "21",
        "addr:place": "СДТ Завода им. Фрунзе",
        "addr:postcode": "449003",
        "addr:street": "5-я линия",
        "building": "house",
        "building:levels": "2",
        "height": "6",
        "house": "terraced",
        "name": "Собственный дом",
        "id": "way/1521895549"
      },
      "geometry": {
        "type": "Polygon",
        "coordinates": [
          [
            [
              50.6587677,
              53.2822093
            ],
            [
              50.6587846,
              53.2821161
            ],
            [
              50.6589184,
              53.2821252
            ],
            [
              50.6588841,
              53.2822239
            ],
            [
              50.6587677,
              53.2822093
            ]
          ]
        ]
      }
    },
    {
      "type": "Feature",
      "id": "way/1521895550",
      "properties": {
        "timestamp": "2026-05-25T20:07:01Z",
        "version": "1",
        "changeset": "183175860",
        "user": "Pakei",
        "uid": "23932419",
        "addr:city": "Усть-Кинельский",
        "addr:housenumber": "17",
        "addr:place": "СДТ Завода им. Фрунзе",
        "addr:postcode": "449003",
        "addr:street": "5-я линия",
        "building": "house",
        "building:levels": "3",
        "height": "9",
        "house": "terraced",
        "name": "Собственный дом",
        "id": "way/1521895550"
      },
      "geometry": {
        "type": "Polygon",
        "coordinates": [
          [
            [
              50.6581964,
              53.2822142
            ],
            [
              50.6582232,
              53.2821693
            ],
            [
              50.6581351,
              53.2821676
            ],
            [
              50.6581055,
              53.2822078
            ],
            [
              50.65795,
              53.2821959
            ],
            [
              50.6579904,
              53.2820732
            ],
            [
              50.6584273,
              53.2820921
            ],
            [
              50.6584026,
              53.2821794
            ],
            [
              50.6583647,
              53.282177
            ],
            [
              50.6583439,
              53.2822245
            ],
            [
              50.6581964,
              53.2822142
            ]
          ]
        ]
      }
    },
    {
      "type": "Feature",
      "id": "way/1521895551",
      "properties": {
        "timestamp": "2026-05-25T20:07:01Z",
        "version": "1",
        "changeset": "183175860",
        "user": "Pakei",
        "uid": "23932419",
        "addr:city": "Усть-Кинельский",
        "addr:housenumber": "14",
        "addr:place": "СДТ Завода им. Фрунзе",
        "addr:postcode": "449003",
        "addr:street": "5-я линия",
        "building": "house",
        "building:levels": "1",
        "height": "3",
        "house": "terraced",
        "name": "Собственный дом",
        "id": "way/1521895551"
      },
      "geometry": {
        "type": "Polygon",
        "coordinates": [
          [
            [
              50.6591522,
              53.282108
            ],
            [
              50.6591488,
              53.2820015
            ],
            [
              50.6592606,
              53.2819981
            ],
            [
              50.6592606,
              53.2820387
            ],
            [
              50.6592606,
              53.2821103
            ],
            [
              50.6591522,
              53.282108
            ]
          ]
        ]
      }
    },
    {
      "type": "Feature",
      "id": "way/1521895552",
      "properties": {
        "timestamp": "2026-05-25T20:07:01Z",
        "version": "1",
        "changeset": "183175860",
        "user": "Pakei",
        "uid": "23932419",
        "addr:city": "Усть-Кинельский",
        "addr:housenumber": "12",
        "addr:place": "СДТ Завода им. Фрунзе",
        "addr:postcode": "449003",
        "addr:street": "5-я линия",
        "building": "house",
        "building:levels": "2",
        "height": "6",
        "house": "terraced",
        "name": "Собственный дом",
        "id": "way/1521895552"
      },
      "geometry": {
        "type": "Polygon",
        "coordinates": [
          [
            [
              50.6588508,
              53.2821042
            ],
            [
              50.6588563,
              53.2819998
            ],
            [
              50.6589509,
              53.2819999
            ],
            [
              50.6589448,
              53.2820388
            ],
            [
              50.658944,
              53.2821105
            ],
            [
              50.6588508,
              53.2821042
            ]
          ]
        ]
      }
    },
    {
      "type": "Feature",
      "id": "way/1521895553",
      "properties": {
        "timestamp": "2026-05-25T20:07:01Z",
        "version": "1",
        "changeset": "183175860",
        "user": "Pakei",
        "uid": "23932419",
        "addr:city": "Усть-Кинельский",
        "addr:housenumber": "10",
        "addr:place": "СДТ Завода им. Фрунзе",
        "addr:postcode": "449003",
        "addr:street": "5-я линия",
        "building": "house",
        "building:levels": "2",
        "height": "6",
        "house": "terraced",
        "name": "Собственный дом",
        "id": "way/1521895553"
      },
      "geometry": {
        "type": "Polygon",
        "coordinates": [
          [
            [
              50.6584563,
              53.282015
            ],
            [
              50.6584628,
              53.2819307
            ],
            [
              50.6586215,
              53.2819376
            ],
            [
              50.6586009,
              53.2820263
            ],
            [
              50.6584563,
              53.282015
            ]
          ]
        ]
      }
    },
    {
      "type": "Feature",
      "id": "way/1521895554",
      "properties": {
        "timestamp": "2026-05-25T20:07:01Z",
        "version": "1",
        "changeset": "183175860",
        "user": "Pakei",
        "uid": "23932419",
        "addr:city": "Усть-Кинельский",
        "addr:housenumber": "6",
        "addr:place": "СДТ Завода им. Фрунзе",
        "addr:postcode": "449003",
        "addr:street": "5-я линия",
        "building": "house",
        "building:levels": "2",
        "height": "6",
        "house": "terraced",
        "name": "Собственный дом",
        "id": "way/1521895554"
      },
      "geometry": {
        "type": "Polygon",
        "coordinates": [
          [
            [
              50.6580591,
              53.2820086
            ],
            [
              50.6580583,
              53.2819566
            ],
            [
              50.6580578,
              53.2819187
            ],
            [
              50.6582135,
              53.2819208
            ],
            [
              50.6581992,
              53.2820118
            ],
            [
              50.6580591,
              53.2820086
            ]
          ]
        ]
      }
    },
    {
      "type": "Feature",
      "id": "way/1521895555",
      "properties": {
        "timestamp": "2026-05-25T20:07:01Z",
        "version": "1",
        "changeset": "183175860",
        "user": "Pakei",
        "uid": "23932419",
        "addr:city": "Усть-Кинельский",
        "addr:housenumber": "8",
        "addr:place": "СДТ Завода им. Фрунзе",
        "addr:postcode": "449003",
        "addr:street": "5-я линия",
        "building": "house",
        "building:levels": "2",
        "height": "6",
        "house": "terraced",
        "name": "Собственный дом",
        "id": "way/1521895555"
      },
      "geometry": {
        "type": "Polygon",
        "coordinates": [
          [
            [
              50.6583347,
              53.2820549
            ],
            [
              50.658325,
              53.2819377
            ],
            [
              50.65843,
              53.2819373
            ],
            [
              50.6584314,
              53.2820588
            ],
            [
              50.6583347,
              53.2820549
            ]
          ]
        ]
      }
    },
    {
      "type": "Feature",
      "id": "way/1521895556",
      "properties": {
        "timestamp": "2026-05-25T20:07:01Z",
        "version": "1",
        "changeset": "183175860",
        "user": "Pakei",
        "uid": "23932419",
        "addr:city": "Усть-Кинельский",
        "addr:housenumber": "14",
        "addr:place": "СДТ Завода им. Фрунзе",
        "addr:postcode": "449003",
        "addr:street": "5-я линия",
        "building": "house",
        "building:levels": "1",
        "height": "3",
        "house": "terraced",
        "name": "Собственный дом",
        "id": "way/1521895556"
      },
      "geometry": {
        "type": "Polygon",
        "coordinates": [
          [
            [
              50.6578965,
              53.2820331
            ],
            [
              50.6578988,
              53.2819522
            ],
            [
              50.6580583,
              53.2819566
            ],
            [
              50.6580466,
              53.2820374
            ],
            [
              50.6578965,
              53.2820331
            ]
          ]
        ]
      }
    }
  ]
}
