{
"type": "FeatureCollection",
"name": "overture",
"crs": { "type": "name", "properties": { "name": "urn:ogc:def:crs:OGC:1.3:CRS84" } },
"features": [
{ "type": "Feature", "properties": { "source_type": "ml", "id": "d9322d3d-2282-4272-bb40-c08b97cd5078", "class": null, "height": null, "num_floors": null }, "geometry": { "type": "Polygon", "coordinates": [ [ [ 50.3181341, 53.4188351 ], [ 50.3181132, 53.4187931 ], [ 50.3181625, 53.4187844 ], [ 50.3181834, 53.4188265 ], [ 50.3181341, 53.4188351 ] ] ] } },
{ "type": "Feature", "properties": { "source_type": "ml", "id": "209da3b5-4a40-4d1a-b3a4-449a0fd04226", "class": null, "height": null, "num_floors": null }, "geometry": { "type": "Polygon", "coordinates": [ [ [ 50.3180617, 53.4188687 ], [ 50.318148, 53.4188418 ], [ 50.3181679, 53.4188644 ], [ 50.3180815, 53.4188913 ], [ 50.3180617, 53.4188687 ] ] ] } },
{ "type": "Feature", "properties": { "source_type": "ml", "id": "33f1452b-12bd-4140-8020-cf75a06a1e72", "class": null, "height": null, "num_floors": null }, "geometry": { "type": "Polygon", "coordinates": [ [ [ 50.3181164, 53.4186642 ], [ 50.3182184, 53.4186315 ], [ 50.3182508, 53.4186675 ], [ 50.3181488, 53.4187001 ], [ 50.3181164, 53.4186642 ] ] ] } },
{ "type": "Feature", "properties": { "source_type": "ml", "id": "1c3bde75-9a42-4394-a089-8604da23ad9c", "class": null, "height": null, "num_floors": null }, "geometry": { "type": "Polygon", "coordinates": [ [ [ 50.3182601, 53.4190802 ], [ 50.3182111, 53.4190191 ], [ 50.3182514, 53.4190076 ], [ 50.3183005, 53.4190687 ], [ 50.3182601, 53.4190802 ] ] ] } },
{ "type": "Feature", "properties": { "source_type": "ml", "id": "1074baa3-0a79-4c2e-9bc7-afc8211b398c", "class": null, "height": null, "num_floors": null }, "geometry": { "type": "Polygon", "coordinates": [ [ [ 50.3183877, 53.4188589 ], [ 50.3184676, 53.4188297 ], [ 50.3185099, 53.4188707 ], [ 50.3184301, 53.4189 ], [ 50.3183877, 53.4188589 ] ] ] } },
{ "type": "Feature", "properties": { "source_type": "ml", "id": "bcb29d7d-d0f2-4628-9ef4-87b2a77f44bd", "class": null, "height": null, "num_floors": null }, "geometry": { "type": "Polygon", "coordinates": [ [ [ 50.3184403, 53.4187785 ], [ 50.3186258, 53.4187273 ], [ 50.3186575, 53.4187681 ], [ 50.318472, 53.4188193 ], [ 50.3184403, 53.4187785 ] ] ] } },
{ "type": "Feature", "properties": { "source_type": "my", "id": "00a7d35c-4c26-429a-8203-626243450d15", "class": "house", "height": null, "num_floors": 2 }, "geometry": { "type": "Polygon", "coordinates": [ [ [ 50.3186214, 53.4184473 ], [ 50.318558, 53.4184666 ], [ 50.3184942, 53.4183923 ], [ 50.3185576, 53.418373 ], [ 50.3186214, 53.4184473 ] ] ] } },
{ "type": "Feature", "properties": { "source_type": "ml", "id": "aeb26118-9de1-4362-ab4e-2d43a43df5b6", "class": null, "height": null, "num_floors": null }, "geometry": { "type": "Polygon", "coordinates": [ [ [ 50.3183372, 53.4182441 ], [ 50.3183558, 53.4182656 ], [ 50.3183059, 53.4182809 ], [ 50.3182873, 53.4182595 ], [ 50.3183372, 53.4182441 ] ] ] } },
{ "type": "Feature", "properties": { "source_type": "my", "id": "0fbb83e5-38db-4329-b8d0-693fe8be8127", "class": "house", "height": null, "num_floors": 3 }, "geometry": { "type": "Polygon", "coordinates": [ [ [ 50.3183418, 53.4180988 ], [ 50.3182165, 53.4181477 ], [ 50.3181563, 53.4180928 ], [ 50.3182817, 53.418044 ], [ 50.3183418, 53.4180988 ] ] ] } },
{ "type": "Feature", "properties": { "source_type": "ml", "id": "19ade059-3052-442d-b951-c9a3fdd0856e", "class": null, "height": null, "num_floors": null }, "geometry": { "type": "Polygon", "coordinates": [ [ [ 50.3183815, 53.4181339 ], [ 50.3183439, 53.4180996 ], [ 50.3184041, 53.4180762 ], [ 50.3184417, 53.4181105 ], [ 50.3183815, 53.4181339 ] ] ] } },
{ "type": "Feature", "properties": { "source_type": "ml", "id": "81983a57-496b-49f8-aaf3-b53210cb7095", "class": null, "height": null, "num_floors": null }, "geometry": { "type": "Polygon", "coordinates": [ [ [ 50.3181598, 53.4180792 ], [ 50.3181167, 53.4180341 ], [ 50.318211, 53.4180021 ], [ 50.3182541, 53.4180472 ], [ 50.3181598, 53.4180792 ] ] ] } },
{ "type": "Feature", "properties": { "source_type": "my", "id": "b9639332-90fe-4a02-9cb2-3ea2c7aecdcc", "class": "house", "height": null, "num_floors": 2 }, "geometry": { "type": "Polygon", "coordinates": [ [ [ 50.3190826, 53.4180321 ], [ 50.3189602, 53.4180762 ], [ 50.3189286, 53.4180451 ], [ 50.319051, 53.418001 ], [ 50.3190826, 53.4180321 ] ] ] } },
{ "type": "Feature", "properties": { "source_type": "ml", "id": "0eb9c02a-f0ac-48e6-96ad-f363d6355e5d", "class": null, "height": null, "num_floors": null }, "geometry": { "type": "Polygon", "coordinates": [ [ [ 50.3191335, 53.4179672 ], [ 50.3191857, 53.4179523 ], [ 50.3192239, 53.4179995 ], [ 50.3191717, 53.4180145 ], [ 50.3191335, 53.4179672 ] ] ] } },
{ "type": "Feature", "properties": { "source_type": "my", "id": "8e9f42f6-fd7f-49f6-9e2a-3de127481273", "class": "house", "height": null, "num_floors": 2 }, "geometry": { "type": "Polygon", "coordinates": [ [ [ 50.3188819, 53.4181192 ], [ 50.318791, 53.4181466 ], [ 50.3187405, 53.418087 ], [ 50.3188314, 53.4180597 ], [ 50.3188819, 53.4181192 ] ] ] } },
{ "type": "Feature", "properties": { "source_type": "ml", "id": "2a7ee6bf-c0fd-400e-b617-1abcb8574939", "class": null, "height": null, "num_floors": null }, "geometry": { "type": "Polygon", "coordinates": [ [ [ 50.3187462, 53.4180039 ], [ 50.3186896, 53.4179732 ], [ 50.3187283, 53.4179478 ], [ 50.3187849, 53.4179785 ], [ 50.3187462, 53.4180039 ] ] ] } },
{ "type": "Feature", "properties": { "source_type": "ml", "id": "7a330bb9-7ece-47a6-825e-75f1060de4cd", "class": null, "height": null, "num_floors": null }, "geometry": { "type": "Polygon", "coordinates": [ [ [ 50.3186141, 53.4179801 ], [ 50.3186392, 53.4180253 ], [ 50.3185933, 53.4180344 ], [ 50.3185682, 53.4179892 ], [ 50.3186141, 53.4179801 ] ] ] } },
{ "type": "Feature", "properties": { "source_type": "ml", "id": "7e61aa67-3f50-441e-8398-1a2c8ceb50c1", "class": null, "height": null, "num_floors": null }, "geometry": { "type": "Polygon", "coordinates": [ [ [ 50.3188685, 53.4183822 ], [ 50.3189192, 53.4184303 ], [ 50.3188846, 53.4184433 ], [ 50.3188339, 53.4183951 ], [ 50.3188685, 53.4183822 ] ] ] } },
{ "type": "Feature", "properties": { "source_type": "my", "id": "538c431f-d66e-4cd7-bb47-411ec832755d", "class": "house", "height": null, "num_floors": 2 }, "geometry": { "type": "Polygon", "coordinates": [ [ [ 50.3189208, 53.418716 ], [ 50.3188255, 53.4187534 ], [ 50.3187723, 53.4187053 ], [ 50.3188676, 53.4186679 ], [ 50.3189208, 53.418716 ] ] ] } },
{ "type": "Feature", "properties": { "source_type": "my", "id": "a3b23ee0-e250-4c70-a712-b3526e023515", "class": "house", "height": null, "num_floors": 2 }, "geometry": { "type": "Polygon", "coordinates": [ [ [ 50.3188293, 53.4186463 ], [ 50.3187761, 53.4186675 ], [ 50.3187263, 53.4186229 ], [ 50.3187795, 53.4186017 ], [ 50.3188293, 53.4186463 ] ] ] } },
{ "type": "Feature", "properties": { "source_type": "ml", "id": "ec0fd8ef-1545-46ae-8489-6c1dcfafd9b8", "class": null, "height": null, "num_floors": null }, "geometry": { "type": "Polygon", "coordinates": [ [ [ 50.3186385, 53.4191378 ], [ 50.3185943, 53.4190948 ], [ 50.3186879, 53.4190606 ], [ 50.3187321, 53.4191036 ], [ 50.3186385, 53.4191378 ] ] ] } },
{ "type": "Feature", "properties": { "source_type": "my", "id": "8fb22748-c332-4c0f-a54f-ff52488d96be", "class": "house", "height": null, "num_floors": 3 }, "geometry": { "type": "Polygon", "coordinates": [ [ [ 50.3193193, 53.419037 ], [ 50.3191678, 53.4190781 ], [ 50.3191036, 53.4189939 ], [ 50.3192551, 53.4189529 ], [ 50.3193193, 53.419037 ] ] ] } },
{ "type": "Feature", "properties": { "source_type": "ml", "id": "716b6d81-277f-48b3-bdd7-4b766858b65b", "class": null, "height": null, "num_floors": null }, "geometry": { "type": "Polygon", "coordinates": [ [ [ 50.3189317, 53.4187983 ], [ 50.3189792, 53.4187802 ], [ 50.3190353, 53.4188323 ], [ 50.3189878, 53.4188504 ], [ 50.3189317, 53.4187983 ] ] ] } },
{ "type": "Feature", "properties": { "source_type": "ml", "id": "38a2b97c-2ff3-4500-b488-bcf8e84653f2", "class": null, "height": null, "num_floors": null }, "geometry": { "type": "Polygon", "coordinates": [ [ [ 50.3189526, 53.4185442 ], [ 50.3189928, 53.418519 ], [ 50.3190605, 53.4185573 ], [ 50.3190203, 53.4185825 ], [ 50.3189526, 53.4185442 ] ] ] } },
{ "type": "Feature", "properties": { "source_type": "my", "id": "31fcc543-4ba3-407a-a123-fb9465e44f0d", "class": "house", "height": null, "num_floors": 2 }, "geometry": { "type": "Polygon", "coordinates": [ [ [ 50.3191448, 53.418493 ], [ 50.3190416, 53.4185222 ], [ 50.3190063, 53.4184778 ], [ 50.3191095, 53.4184486 ], [ 50.3191448, 53.418493 ] ] ] } },
{ "type": "Feature", "properties": { "source_type": "my", "id": "df91d5a8-07f6-4588-ab2d-280cc2a3d353", "class": "house", "height": null, "num_floors": 2 }, "geometry": { "type": "Polygon", "coordinates": [ [ [ 50.3193669, 53.4187235 ], [ 50.3193038, 53.4187419 ], [ 50.3192743, 53.4187059 ], [ 50.3193374, 53.4186876 ], [ 50.3193669, 53.4187235 ] ] ] } },
{ "type": "Feature", "properties": { "source_type": "my", "id": "d60a9147-5614-4dbf-b0d7-e6dd5d491d84", "class": "house", "height": null, "num_floors": 2 }, "geometry": { "type": "Polygon", "coordinates": [ [ [ 50.3194578, 53.4184387 ], [ 50.3193445, 53.4184824 ], [ 50.3192956, 53.4184373 ], [ 50.3194088, 53.4183937 ], [ 50.3194578, 53.4184387 ] ] ] } },
{ "type": "Feature", "properties": { "source_type": "my", "id": "2ca7110d-300f-49b5-b5f1-c3852be151bd", "class": "house", "height": null, "num_floors": 2 }, "geometry": { "type": "Polygon", "coordinates": [ [ [ 50.3196131, 53.4186473 ], [ 50.3195279, 53.418676 ], [ 50.3195006, 53.4186473 ], [ 50.3194871, 53.418633 ], [ 50.3195724, 53.4186043 ], [ 50.3196131, 53.4186473 ] ] ] } },
{ "type": "Feature", "properties": { "source_type": "my", "id": "70bfa1b8-6e29-43b9-8f61-b58f11bc3e61", "class": "house", "height": null, "num_floors": 2 }, "geometry": { "type": "Polygon", "coordinates": [ [ [ 50.3196128, 53.4189387 ], [ 50.3195298, 53.4189695 ], [ 50.3194871, 53.4189287 ], [ 50.3195702, 53.4188979 ], [ 50.3196128, 53.4189387 ] ] ] } },
{ "type": "Feature", "properties": { "source_type": "ml", "id": "d06b5e5c-3297-4aa1-832b-ac4b1a81384a", "class": null, "height": null, "num_floors": null }, "geometry": { "type": "Polygon", "coordinates": [ [ [ 50.3193113, 53.4188186 ], [ 50.3192921, 53.418784 ], [ 50.3193297, 53.4187766 ], [ 50.3193488, 53.4188112 ], [ 50.3193113, 53.4188186 ] ] ] } },
{ "type": "Feature", "properties": { "source_type": "ml", "id": "9c8fad69-bcf2-4314-87b3-a2305f861166", "class": null, "height": null, "num_floors": null }, "geometry": { "type": "Polygon", "coordinates": [ [ [ 50.3192906, 53.4189715 ], [ 50.3193735, 53.4189604 ], [ 50.3193908, 53.4190061 ], [ 50.3193078, 53.4190172 ], [ 50.3192906, 53.4189715 ] ] ] } },
{ "type": "Feature", "properties": { "source_type": "my", "id": "75a01ac0-10aa-45df-a13d-da016978767d", "class": "house", "height": null, "num_floors": 2 }, "geometry": { "type": "Polygon", "coordinates": [ [ [ 50.3197041, 53.4187457 ], [ 50.3196453, 53.4187637 ], [ 50.3196092, 53.4187216 ], [ 50.319668, 53.4187037 ], [ 50.3197041, 53.4187457 ] ] ] } },
{ "type": "Feature", "properties": { "source_type": "ml", "id": "ec01f377-a96f-4225-ae6a-94ad3792d4e1", "class": null, "height": null, "num_floors": null }, "geometry": { "type": "Polygon", "coordinates": [ [ [ 50.3196939, 53.4185512 ], [ 50.3197282, 53.4185395 ], [ 50.3197664, 53.4185791 ], [ 50.3197321, 53.4185909 ], [ 50.3196939, 53.4185512 ] ] ] } },
{ "type": "Feature", "properties": { "source_type": "ml", "id": "b260b2e2-c950-4167-ab1e-9ac06557dc47", "class": null, "height": null, "num_floors": null }, "geometry": { "type": "Polygon", "coordinates": [ [ [ 50.3195821, 53.4183885 ], [ 50.3195538, 53.4183456 ], [ 50.3195979, 53.4183353 ], [ 50.3196262, 53.4183782 ], [ 50.3195821, 53.4183885 ] ] ] } },
{ "type": "Feature", "properties": { "source_type": "ml", "id": "8a73eeff-bb5b-4f7a-acf1-48e589610374", "class": null, "height": null, "num_floors": null }, "geometry": { "type": "Polygon", "coordinates": [ [ [ 50.3193992, 53.4179599 ], [ 50.3194358, 53.4180054 ], [ 50.3193581, 53.4180275 ], [ 50.3193216, 53.417982 ], [ 50.3193992, 53.4179599 ] ] ] } }
]
}
