{
"type": "FeatureCollection",
"name": "overture",
"features": [
{ "type": "Feature", "properties": { "id": "8cf4a725-3e80-4953-afad-9aeea3bd5e12", "names.primary": null, "sources": [ { "property": "", "dataset": "OpenStreetMap", "license": "ODbL-1.0", "record_id": "w1469927805@4", "update_time": "2026-02-22T10:53:25.000Z", "confidence": null, "between": null } ], "level": null, "height": null, "min_height": null, "is_underground": false, "num_floors": 2, "num_floors_underground": null, "min_floor": null, "subtype": "residential", "class": "detached", "facade_color": null, "facade_material": null, "roof_material": null, "roof_shape": null, "roof_direction": null, "roof_orientation": null, "roof_color": null, "roof_height": null, "has_parts": false, "version": 1, "bbox.xmin": 50.52813720703125, "bbox.xmax": 50.528316497802734, "bbox.ymin": 53.247615814208984, "bbox.ymax": 53.247703552246094, "theme": "buildings", "type": "building", "source_type": "my" }, "geometry": { "type": "Polygon", "coordinates": [ [ [ 50.5282865, 53.2477019 ], [ 50.5281382, 53.2476767 ], [ 50.528167, 53.2476159 ], [ 50.5283153, 53.247641 ], [ 50.5282865, 53.2477019 ] ] ] } },
{ "type": "Feature", "properties": { "id": "23707eb3-ed50-43ed-98d3-c97385c28d3c", "names.primary": null, "sources": [ { "property": "", "dataset": "Microsoft ML Buildings", "license": "ODbL-1.0", "record_id": null, "update_time": "2016-08-09T00:00:00.000Z", "confidence": null, "between": null } ], "level": null, "height": null, "min_height": null, "is_underground": false, "num_floors": null, "num_floors_underground": null, "min_floor": null, "subtype": null, "class": null, "facade_color": null, "facade_material": null, "roof_material": null, "roof_shape": null, "roof_direction": null, "roof_orientation": null, "roof_color": null, "roof_height": null, "has_parts": false, "version": 3, "bbox.xmin": 50.528087615966797, "bbox.xmax": 50.528160095214844, "bbox.ymin": 53.247611999511719, "bbox.ymax": 53.247650146484375, "theme": "buildings", "type": "building", "source_type": "ml" }, "geometry": { "type": "Polygon", "coordinates": [ [ [ 50.5280881, 53.2476358 ], [ 50.5280948, 53.2476125 ], [ 50.52816, 53.2476192 ], [ 50.5281532, 53.2476426 ], [ 50.5280881, 53.2476358 ] ] ] } },
{ "type": "Feature", "properties": { "id": "d1a3b0ab-e1c7-4cd6-89fe-8e9cd9614885", "names.primary": null, "sources": [ { "property": "", "dataset": "OpenStreetMap", "license": "ODbL-1.0", "record_id": "w1478769274@3", "update_time": "2026-02-22T10:53:25.000Z", "confidence": null, "between": null } ], "level": null, "height": null, "min_height": null, "is_underground": false, "num_floors": 2, "num_floors_underground": null, "min_floor": null, "subtype": "residential", "class": "house", "facade_color": null, "facade_material": null, "roof_material": null, "roof_shape": null, "roof_direction": null, "roof_orientation": null, "roof_color": null, "roof_height": null, "has_parts": false, "version": 4, "bbox.xmin": 50.527755737304688, "bbox.xmax": 50.527900695800781, "bbox.ymin": 53.247600555419922, "bbox.ymax": 53.247684478759766, "theme": "buildings", "type": "building", "source_type": "my" }, "geometry": { "type": "Polygon", "coordinates": [ [ [ 50.527878, 53.2476835 ], [ 50.5277571, 53.2476617 ], [ 50.5277869, 53.2476024 ], [ 50.5278739, 53.247618 ], [ 50.5278601, 53.2476454 ], [ 50.5278941, 53.2476515 ], [ 50.527878, 53.2476835 ] ] ] } },
{ "type": "Feature", "properties": { "id": "89f5478f-72b8-4d0b-bbbe-9305e4070b3e", "names.primary": null, "sources": [ { "property": "", "dataset": "Microsoft ML Buildings", "license": "ODbL-1.0", "record_id": null, "update_time": "2016-08-09T00:00:00.000Z", "confidence": null, "between": null } ], "level": null, "height": null, "min_height": null, "is_underground": false, "num_floors": null, "num_floors_underground": null, "min_floor": null, "subtype": null, "class": null, "facade_color": null, "facade_material": null, "roof_material": null, "roof_shape": null, "roof_direction": null, "roof_orientation": null, "roof_color": null, "roof_height": null, "has_parts": false, "version": 3, "bbox.xmin": 50.527019500732422, "bbox.xmax": 50.527210235595703, "bbox.ymin": 53.247764587402344, "bbox.ymax": 53.247882843017578, "theme": "buildings", "type": "building", "source_type": "ml" }, "geometry": { "type": "Polygon", "coordinates": [ [ [ 50.5271533, 53.2478766 ], [ 50.5270201, 53.247846 ], [ 50.5270712, 53.2477662 ], [ 50.5272045, 53.2477969 ], [ 50.5271533, 53.2478766 ] ] ] } },
{ "type": "Feature", "properties": { "id": "c72bf8f7-1f9a-4201-9c87-f5f89f87a625", "names.primary": null, "sources": [ { "property": "", "dataset": "Microsoft ML Buildings", "license": "ODbL-1.0", "record_id": null, "update_time": "2016-08-09T00:00:00.000Z", "confidence": null, "between": null } ], "level": null, "height": null, "min_height": null, "is_underground": false, "num_floors": null, "num_floors_underground": null, "min_floor": null, "subtype": null, "class": null, "facade_color": null, "facade_material": null, "roof_material": null, "roof_shape": null, "roof_direction": null, "roof_orientation": null, "roof_color": null, "roof_height": null, "has_parts": false, "version": 3, "bbox.xmin": 50.5269775390625, "bbox.xmax": 50.527065277099609, "bbox.ymin": 53.247749328613281, "bbox.ymax": 53.247821807861328, "theme": "buildings", "type": "building", "source_type": "ml" }, "geometry": { "type": "Polygon", "coordinates": [ [ [ 50.5270308, 53.2478202 ], [ 50.5269836, 53.2478097 ], [ 50.5270169, 53.2477561 ], [ 50.527064, 53.2477666 ], [ 50.5270308, 53.2478202 ] ] ] } },
{ "type": "Feature", "properties": { "id": "21e142d4-4124-418e-9f16-b429b8c11612", "names.primary": null, "sources": [ { "property": "", "dataset": "Microsoft ML Buildings", "license": "ODbL-1.0", "record_id": null, "update_time": "2016-08-09T00:00:00.000Z", "confidence": null, "between": null } ], "level": null, "height": null, "min_height": null, "is_underground": false, "num_floors": null, "num_floors_underground": null, "min_floor": null, "subtype": null, "class": null, "facade_color": null, "facade_material": null, "roof_material": null, "roof_shape": null, "roof_direction": null, "roof_orientation": null, "roof_color": null, "roof_height": null, "has_parts": false, "version": 3, "bbox.xmin": 50.526893615722656, "bbox.xmax": 50.526992797851562, "bbox.ymin": 53.247764587402344, "bbox.ymax": 53.247837066650391, "theme": "buildings", "type": "building", "source_type": "ml" }, "geometry": { "type": "Polygon", "coordinates": [ [ [ 50.526901, 53.2478268 ], [ 50.5269115, 53.2477648 ], [ 50.5269858, 53.2477694 ], [ 50.5269753, 53.2478313 ], [ 50.526901, 53.2478268 ] ] ] } },
{ "type": "Feature", "properties": { "id": "2042c02c-f0cb-4ccc-b2bd-d97819e0c29c", "names.primary": null, "sources": [ { "property": "", "dataset": "OpenStreetMap", "license": "ODbL-1.0", "record_id": "w1478769276@3", "update_time": "2026-02-22T10:53:25.000Z", "confidence": null, "between": null } ], "level": null, "height": null, "min_height": null, "is_underground": false, "num_floors": 2, "num_floors_underground": null, "min_floor": null, "subtype": "residential", "class": "house", "facade_color": null, "facade_material": null, "roof_material": null, "roof_shape": null, "roof_direction": null, "roof_orientation": null, "roof_color": null, "roof_height": null, "has_parts": false, "version": 1, "bbox.xmin": 50.527378082275391, "bbox.xmax": 50.527568817138672, "bbox.ymin": 53.247486114501953, "bbox.ymax": 53.247623443603516, "theme": "buildings", "type": "building", "source_type": "my" }, "geometry": { "type": "Polygon", "coordinates": [ [ [ 50.5275156, 53.247617 ], [ 50.5273795, 53.2475908 ], [ 50.5274326, 53.2474922 ], [ 50.5275686, 53.2475183 ], [ 50.5275156, 53.247617 ] ] ] } },
{ "type": "Feature", "properties": { "id": "c2eb2f4c-2ea5-4555-8ab7-dcff75998f9a", "names.primary": null, "sources": [ { "property": "", "dataset": "OpenStreetMap", "license": "ODbL-1.0", "record_id": "w1481721737@1", "update_time": "2026-02-22T10:53:25.000Z", "confidence": null, "between": null } ], "level": null, "height": null, "min_height": null, "is_underground": false, "num_floors": 1, "num_floors_underground": null, "min_floor": null, "subtype": "residential", "class": "house", "facade_color": null, "facade_material": null, "roof_material": null, "roof_shape": null, "roof_direction": null, "roof_orientation": null, "roof_color": null, "roof_height": null, "has_parts": false, "version": 4, "bbox.xmin": 50.527256011962891, "bbox.xmax": 50.527431488037109, "bbox.ymin": 53.247444152832031, "bbox.ymax": 53.24755859375, "theme": "buildings", "type": "building", "source_type": "my" }, "geometry": { "type": "Polygon", "coordinates": [ [ [ 50.5273819, 53.2475512 ], [ 50.5272625, 53.2475289 ], [ 50.5273058, 53.2474458 ], [ 50.5274252, 53.247468 ], [ 50.5273819, 53.2475512 ] ] ] } },
{ "type": "Feature", "properties": { "id": "09d92da1-17a9-404d-8eb2-edf4b8fbf51e", "names.primary": null, "sources": [ { "property": "", "dataset": "OpenStreetMap", "license": "ODbL-1.0", "record_id": "w1478769277@4", "update_time": "2026-02-22T10:53:25.000Z", "confidence": null, "between": null } ], "level": null, "height": null, "min_height": null, "is_underground": false, "num_floors": 1, "num_floors_underground": null, "min_floor": null, "subtype": "residential", "class": "house", "facade_color": null, "facade_material": null, "roof_material": null, "roof_shape": null, "roof_direction": null, "roof_orientation": null, "roof_color": null, "roof_height": null, "has_parts": false, "version": 4, "bbox.xmin": 50.526897430419922, "bbox.xmax": 50.527072906494141, "bbox.ymin": 53.247367858886719, "bbox.ymax": 53.247489929199219, "theme": "buildings", "type": "building", "source_type": "my" }, "geometry": { "type": "Polygon", "coordinates": [ [ [ 50.5270121, 53.2474839 ], [ 50.5269037, 53.2474609 ], [ 50.5269582, 53.2473689 ], [ 50.5270667, 53.2473919 ], [ 50.5270121, 53.2474839 ] ] ] } },
{ "type": "Feature", "properties": { "id": "a8888d31-f2df-4d75-bd47-afb8cc08cd33", "names.primary": null, "sources": [ { "property": "", "dataset": "OpenStreetMap", "license": "ODbL-1.0", "record_id": "w1479852226@2", "update_time": "2026-02-22T10:53:25.000Z", "confidence": null, "between": null } ], "level": null, "height": null, "min_height": null, "is_underground": false, "num_floors": 2, "num_floors_underground": null, "min_floor": null, "subtype": "residential", "class": "house", "facade_color": null, "facade_material": null, "roof_material": null, "roof_shape": null, "roof_direction": null, "roof_orientation": null, "roof_color": null, "roof_height": null, "has_parts": false, "version": 1, "bbox.xmin": 50.526660919189453, "bbox.xmax": 50.526882171630859, "bbox.ymin": 53.247295379638672, "bbox.ymax": 53.247440338134766, "theme": "buildings", "type": "building", "source_type": "my" }, "geometry": { "type": "Polygon", "coordinates": [ [ [ 50.5268025, 53.24744 ], [ 50.5266682, 53.247402 ], [ 50.5267473, 53.2473018 ], [ 50.5268816, 53.2473398 ], [ 50.5268025, 53.24744 ] ] ] } },
{ "type": "Feature", "properties": { "id": "8a42f4e2-35df-483b-b00e-9a00a7471e1d", "names.primary": null, "sources": [ { "property": "", "dataset": "Microsoft ML Buildings", "license": "ODbL-1.0", "record_id": null, "update_time": "2016-08-09T00:00:00.000Z", "confidence": null, "between": null } ], "level": null, "height": null, "min_height": null, "is_underground": false, "num_floors": null, "num_floors_underground": null, "min_floor": null, "subtype": null, "class": null, "facade_color": null, "facade_material": null, "roof_material": null, "roof_shape": null, "roof_direction": null, "roof_orientation": null, "roof_color": null, "roof_height": null, "has_parts": false, "version": 3, "bbox.xmin": 50.528419494628906, "bbox.xmax": 50.528499603271484, "bbox.ymin": 53.247646331787109, "bbox.ymax": 53.247684478759766, "theme": "buildings", "type": "building", "source_type": "ml" }, "geometry": { "type": "Polygon", "coordinates": [ [ [ 50.5284229, 53.2476536 ], [ 50.5284938, 53.2476561 ], [ 50.5284911, 53.247684 ], [ 50.5284201, 53.2476815 ], [ 50.5284229, 53.2476536 ] ] ] } },
{ "type": "Feature", "properties": { "id": "99ac4686-9e62-4065-b985-8c2bfc89b684", "names.primary": null, "sources": [ { "property": "", "dataset": "OpenStreetMap", "license": "ODbL-1.0", "record_id": "w1478769273@3", "update_time": "2026-02-22T10:53:25.000Z", "confidence": null, "between": null } ], "level": null, "height": null, "min_height": null, "is_underground": false, "num_floors": 2, "num_floors_underground": null, "min_floor": null, "subtype": "residential", "class": "house", "facade_color": null, "facade_material": null, "roof_material": null, "roof_shape": null, "roof_direction": null, "roof_orientation": null, "roof_color": null, "roof_height": null, "has_parts": false, "version": 4, "bbox.xmin": 50.528488159179688, "bbox.xmax": 50.528648376464844, "bbox.ymin": 53.2476806640625, "bbox.ymax": 53.247776031494141, "theme": "buildings", "type": "building", "source_type": "my" }, "geometry": { "type": "Polygon", "coordinates": [ [ [ 50.5286073, 53.2477745 ], [ 50.5284946, 53.2477556 ], [ 50.5285294, 53.247681 ], [ 50.5286422, 53.2476999 ], [ 50.5286073, 53.2477745 ] ] ] } },
{ "type": "Feature", "properties": { "id": "15f279b6-90ff-4ace-8a88-51c66afe1d8b", "names.primary": null, "sources": [ { "property": "", "dataset": "Microsoft ML Buildings", "license": "ODbL-1.0", "record_id": null, "update_time": "2016-08-09T00:00:00.000Z", "confidence": null, "between": null } ], "level": null, "height": null, "min_height": null, "is_underground": false, "num_floors": null, "num_floors_underground": null, "min_floor": null, "subtype": null, "class": null, "facade_color": null, "facade_material": null, "roof_material": null, "roof_shape": null, "roof_direction": null, "roof_orientation": null, "roof_color": null, "roof_height": null, "has_parts": false, "version": 3, "bbox.xmin": 50.525745391845703, "bbox.xmax": 50.525890350341797, "bbox.ymin": 53.246940612792969, "bbox.ymax": 53.247032165527344, "theme": "buildings", "type": "building", "source_type": "ml" }, "geometry": { "type": "Polygon", "coordinates": [ [ [ 50.5258244, 53.246941 ], [ 50.5258839, 53.2469681 ], [ 50.5258116, 53.2470251 ], [ 50.525752, 53.2469981 ], [ 50.5258244, 53.246941 ] ] ] } },
{ "type": "Feature", "properties": { "id": "d30a383f-d363-4db9-b522-a905e91e7c69", "names.primary": null, "sources": [ { "property": "", "dataset": "OpenStreetMap", "license": "ODbL-1.0", "record_id": "w1479852225@2", "update_time": "2026-02-22T10:53:25.000Z", "confidence": null, "between": null } ], "level": null, "height": null, "min_height": null, "is_underground": false, "num_floors": 2, "num_floors_underground": null, "min_floor": null, "subtype": "residential", "class": "house", "facade_color": null, "facade_material": null, "roof_material": null, "roof_shape": null, "roof_direction": null, "roof_orientation": null, "roof_color": null, "roof_height": null, "has_parts": false, "version": 1, "bbox.xmin": 50.525749206542969, "bbox.xmax": 50.526039123535156, "bbox.ymin": 53.246955871582031, "bbox.ymax": 53.247188568115234, "theme": "buildings", "type": "building", "source_type": "my" }, "geometry": { "type": "Polygon", "coordinates": [ [ [ 50.5257511, 53.2471108 ], [ 50.5259228, 53.2469617 ], [ 50.5260099, 53.2469977 ], [ 50.5259478, 53.2470515 ], [ 50.5260328, 53.2470866 ], [ 50.5259231, 53.2471818 ], [ 50.5257511, 53.2471108 ] ] ] } },
{ "type": "Feature", "properties": { "id": "1dab13ee-db00-45c6-b740-c6b06e29c982", "names.primary": null, "sources": [ { "property": "", "dataset": "OpenStreetMap", "license": "ODbL-1.0", "record_id": "w1479852224@2", "update_time": "2026-02-22T10:53:25.000Z", "confidence": null, "between": null } ], "level": null, "height": null, "min_height": null, "is_underground": false, "num_floors": 2, "num_floors_underground": null, "min_floor": null, "subtype": "residential", "class": "house", "facade_color": null, "facade_material": null, "roof_material": null, "roof_shape": null, "roof_direction": null, "roof_orientation": null, "roof_color": null, "roof_height": null, "has_parts": false, "version": 4, "bbox.xmin": 50.526206970214844, "bbox.xmax": 50.526363372802734, "bbox.ymin": 53.247161865234375, "bbox.ymax": 53.247268676757812, "theme": "buildings", "type": "building", "source_type": "my" }, "geometry": { "type": "Polygon", "coordinates": [ [ [ 50.5262654, 53.2471686 ], [ 50.5263617, 53.2472013 ], [ 50.5263033, 53.2472627 ], [ 50.526207, 53.24723 ], [ 50.5262654, 53.2471686 ] ] ] } },
{ "type": "Feature", "properties": { "id": "a4ba40ac-cbfc-40c8-b67b-fb6ea9a708ba", "names.primary": null, "sources": [ { "property": "", "dataset": "OpenStreetMap", "license": "ODbL-1.0", "record_id": "w1478769279@3", "update_time": "2026-02-22T10:53:25.000Z", "confidence": null, "between": null } ], "level": null, "height": null, "min_height": null, "is_underground": false, "num_floors": 2, "num_floors_underground": null, "min_floor": null, "subtype": "residential", "class": "house", "facade_color": null, "facade_material": null, "roof_material": null, "roof_shape": null, "roof_direction": null, "roof_orientation": null, "roof_color": null, "roof_height": null, "has_parts": false, "version": 4, "bbox.xmin": 50.526355743408203, "bbox.xmax": 50.526588439941406, "bbox.ymin": 53.247219085693359, "bbox.ymax": 53.247356414794922, "theme": "buildings", "type": "building", "source_type": "my" }, "geometry": { "type": "Polygon", "coordinates": [ [ [ 50.5265188, 53.2473556 ], [ 50.5263558, 53.2473136 ], [ 50.5264187, 53.2472262 ], [ 50.5265816, 53.2472682 ], [ 50.5265188, 53.2473556 ] ] ] } },
{ "type": "Feature", "properties": { "id": "4b4778c0-b7ba-4fbf-b448-e9767ca3618a", "names.primary": null, "sources": [ { "property": "", "dataset": "Microsoft ML Buildings", "license": "ODbL-1.0", "record_id": null, "update_time": "2016-08-09T00:00:00.000Z", "confidence": null, "between": null } ], "level": null, "height": null, "min_height": null, "is_underground": false, "num_floors": null, "num_floors_underground": null, "min_floor": null, "subtype": null, "class": null, "facade_color": null, "facade_material": null, "roof_material": null, "roof_shape": null, "roof_direction": null, "roof_orientation": null, "roof_color": null, "roof_height": null, "has_parts": false, "version": 3, "bbox.xmin": 50.525997161865234, "bbox.xmax": 50.526123046875, "bbox.ymin": 53.247386932373047, "bbox.ymax": 53.247447967529297, "theme": "buildings", "type": "building", "source_type": "ml" }, "geometry": { "type": "Polygon", "coordinates": [ [ [ 50.5260315, 53.2473877 ], [ 50.5261167, 53.2474136 ], [ 50.5260885, 53.2474468 ], [ 50.5260033, 53.2474208 ], [ 50.5260315, 53.2473877 ] ] ] } },
{ "type": "Feature", "properties": { "id": "d0f12dad-a4a0-4417-9be3-57737b2ecb62", "names.primary": null, "sources": [ { "property": "", "dataset": "Microsoft ML Buildings", "license": "ODbL-1.0", "record_id": null, "update_time": "2016-08-09T00:00:00.000Z", "confidence": null, "between": null } ], "level": null, "height": null, "min_height": null, "is_underground": false, "num_floors": null, "num_floors_underground": null, "min_floor": null, "subtype": null, "class": null, "facade_color": null, "facade_material": null, "roof_material": null, "roof_shape": null, "roof_direction": null, "roof_orientation": null, "roof_color": null, "roof_height": null, "has_parts": false, "version": 3, "bbox.xmin": 50.526218414306641, "bbox.xmax": 50.526542663574219, "bbox.ymin": 53.247623443603516, "bbox.ymax": 53.24774169921875, "theme": "buildings", "type": "building", "source_type": "ml" }, "geometry": { "type": "Polygon", "coordinates": [ [ [ 50.5262628, 53.2476251 ], [ 50.5265359, 53.2476715 ], [ 50.5265035, 53.2477398 ], [ 50.5263222, 53.247709 ], [ 50.5263173, 53.2477194 ], [ 50.5262255, 53.2477038 ], [ 50.5262628, 53.2476251 ] ] ] } },
{ "type": "Feature", "properties": { "id": "d37e4441-748b-4b40-87af-12ece023254e", "names.primary": null, "sources": [ { "property": "", "dataset": "Microsoft ML Buildings", "license": "ODbL-1.0", "record_id": null, "update_time": "2016-08-09T00:00:00.000Z", "confidence": null, "between": null } ], "level": null, "height": null, "min_height": null, "is_underground": false, "num_floors": null, "num_floors_underground": null, "min_floor": null, "subtype": null, "class": null, "facade_color": null, "facade_material": null, "roof_material": null, "roof_shape": null, "roof_direction": null, "roof_orientation": null, "roof_color": null, "roof_height": null, "has_parts": false, "version": 3, "bbox.xmin": 50.526458740234375, "bbox.xmax": 50.526561737060547, "bbox.ymin": 53.247634887695312, "bbox.ymax": 53.247676849365234, "theme": "buildings", "type": "building", "source_type": "ml" }, "geometry": { "type": "Polygon", "coordinates": [ [ [ 50.526476, 53.2476408 ], [ 50.5265542, 53.2476554 ], [ 50.5265436, 53.2476759 ], [ 50.5264653, 53.2476613 ], [ 50.526476, 53.2476408 ] ] ] } },
{ "type": "Feature", "properties": { "id": "be38df7c-da5a-4e41-93f5-1736ae63ff47", "names.primary": null, "sources": [ { "property": "", "dataset": "Microsoft ML Buildings", "license": "ODbL-1.0", "record_id": null, "update_time": "2016-08-09T00:00:00.000Z", "confidence": null, "between": null } ], "level": null, "height": null, "min_height": null, "is_underground": false, "num_floors": null, "num_floors_underground": null, "min_floor": null, "subtype": null, "class": null, "facade_color": null, "facade_material": null, "roof_material": null, "roof_shape": null, "roof_direction": null, "roof_orientation": null, "roof_color": null, "roof_height": null, "has_parts": false, "version": 3, "bbox.xmin": 50.525653839111328, "bbox.xmax": 50.525787353515625, "bbox.ymin": 53.247627258300781, "bbox.ymax": 53.247699737548828, "theme": "buildings", "type": "building", "source_type": "ml" }, "geometry": { "type": "Polygon", "coordinates": [ [ [ 50.5257626, 53.2476929 ], [ 50.5256597, 53.2476768 ], [ 50.525678, 53.2476348 ], [ 50.525781, 53.2476508 ], [ 50.5257626, 53.2476929 ] ] ] } }
]
}
